{"type":"FeatureCollection","features":[{"type":"Feature","properties":{"province_code":"BA","name":"Balochistan"},"geometry":{"type":"Polygon","coordinates":[[[64.9437,25.3243],[65.0347,25.3179],[65.1175,25.3029],[65.1827,25.304],[65.2179,25.312],[65.2408,25.3501],[65.2536,25.3749],[65.2918,25.3804],[65.3374,25.3768],[65.3668,25.3834],[65.4151,25.376],[65.4574,25.39],[65.6254,25.3538],[65.6685,25.3649],[65.7096,25.3688],[65.718,25.3749],[65.77,25.3829],[65.8064,25.4111],[65.8399,25.4183],[65.9466,25.4144],[66.0227,25.4227],[66.1264,25.4493],[66.219,25.4593],[66.2722,25.4675],[66.3027,25.4685],[66.3514,25.4619],[66.412,25.4423],[66.4851,25.406],[66.5112,25.3985],[66.5284,25.4158],[66.4984,25.4322],[66.4965,25.4588],[66.5135,25.4741],[66.5174,25.4921],[66.4957,25.4994],[66.4683,25.4987],[66.4265,25.4826],[66.4042,25.4962],[66.4058,25.5063],[66.3883,25.526],[66.3636,25.5228],[66.3428,25.5514],[66.3264,25.5528],[66.314,25.5377],[66.2898,25.5434],[66.2623,25.5187],[66.2237,25.4991],[66.1497,25.4774],[66.122,25.4742],[66.1157,25.4867],[66.1008,25.475],[66.0957,25.486],[66.1128,25.4893],[66.1342,25.5117],[66.1319,25.5383],[66.1807,25.5832],[66.1846,25.5945],[66.2104,25.6022],[66.2236,25.5917],[66.3001,25.6236],[66.3105,25.6101],[66.3414,25.6178],[66.3641,25.6162],[66.3725,25.599],[66.3991,25.5835],[66.4454,25.5973],[66.4594,25.6139],[66.4707,25.5889],[66.5028,25.5774],[66.5302,25.6403],[66.5422,25.6412],[66.5327,25.6216],[66.543,25.6145],[66.5347,25.5901],[66.5159,25.5635],[66.5289,25.5422],[66.5586,25.5319],[66.555,25.4803],[66.56,25.453],[66.5942,25.425],[66.5783,25.4115],[66.582,25.3853],[66.5736,25.3687],[66.5553,25.3922],[66.5491,25.3622],[66.5547,25.3513],[66.5982,25.3251],[66.6624,25.2766],[66.7103,25.2317],[66.7389,25.1954],[66.7486,25.1679],[66.7352,25.1244],[66.7156,25.1142],[66.711,25.0905],[66.7018,25.0869],[66.7126,25.0496],[66.7114,25.0131],[66.7011,24.9977],[66.7011,24.9525],[66.6778,24.9333],[66.6912,24.8972],[66.729,24.9194],[66.7683,24.9531],[66.8787,25.0059],[66.915,25.0107],[66.9399,25.0296],[66.9959,25.0857],[67.0062,25.0889],[67.0121,25.1125],[67.0094,25.1598],[67.0429,25.2099],[67.0879,25.2405],[67.1151,25.2709],[67.1407,25.3106],[67.1384,25.3362],[67.1439,25.3619],[67.164,25.3911],[67.162,25.4526],[67.1869,25.4696],[67.1956,25.4893],[67.222,25.5126],[67.2485,25.5264],[67.2638,25.5742],[67.2966,25.5852],[67.3239,25.6426],[67.336,25.6977],[67.3499,25.7332],[67.3743,25.7529],[67.3723,25.7624],[67.3996,25.7841],[67.4165,25.8251],[67.4157,25.8421],[67.3992,25.8827],[67.4051,25.9044],[67.4063,25.966],[67.4165,26.024],[67.4303,26.0768],[67.417,26.0965],[67.3917,26.1356],[67.3593,26.1546],[67.3435,26.2031],[67.2656,26.3472],[67.2552,26.3708],[67.2153,26.4284],[67.1774,26.4773],[67.162,26.514],[67.1417,26.5969],[67.1289,26.634],[67.1275,26.6551],[67.134,26.6719],[67.1257,26.7389],[67.147,26.7662],[67.1343,26.8729],[67.1317,26.9236],[67.1443,26.9552],[67.138,26.9962],[67.1636,27.0656],[67.1585,27.0747],[67.1557,27.1269],[67.1403,27.214],[67.1234,27.2759],[67.1273,27.3091],[67.1372,27.3316],[67.1632,27.3675],[67.174,27.4479],[67.1778,27.5198],[67.1853,27.5403],[67.2236,27.5687],[67.2524,27.6591],[67.3309,27.7194],[67.355,27.7577],[67.3581,27.8039],[67.368,27.8366],[67.385,27.8709],[67.3976,27.9123],[67.4201,27.8951],[67.5014,27.9029],[67.5329,27.9124],[67.5437,27.9059],[67.6599,27.9367],[67.672,27.9374],[67.7382,27.9414],[67.7856,27.9509],[67.7879,27.9817],[67.833,27.9912],[67.8686,28.0055],[67.9136,28.0007],[67.9231,28.0363],[67.9705,28.0766],[68.0156,28.0956],[68.0654,28.1382],[68.2005,28.2426],[68.3547,28.2924],[68.395,28.3896],[68.4638,28.4323],[68.8455,28.4323],[68.9198,28.4347],[69.0708,28.437],[69.131,28.4398],[69.1751,28.4418],[69.2415,28.4512],[69.3608,28.4512],[69.3323,28.5263],[69.3188,28.552],[69.3494,28.5704],[69.4162,28.5974],[69.4806,28.6979],[69.518,28.7512],[69.5388,28.7929],[69.5229,28.8321],[69.4812,28.8505],[69.4935,28.8995],[69.5407,28.932],[69.5554,28.9547],[69.5774,28.959],[69.5909,28.9951],[69.6142,29.0276],[69.6528,29.0711],[69.6976,29.0883],[69.7491,29.1876],[69.7387,29.2243],[69.7626,29.2789],[69.7648,29.2936],[69.746,29.2979],[69.7,29.2599],[69.6841,29.2581],[69.6804,29.2881],[69.6633,29.3083],[69.6363,29.312],[69.6369,29.3255],[69.6651,29.3524],[69.67,29.3653],[69.646,29.3976],[69.6295,29.4162],[69.6124,29.4229],[69.5817,29.4033],[69.567,29.4076],[69.5639,29.4517],[69.5738,29.4781],[69.596,29.5065],[69.6007,29.5259],[69.6062,29.6],[69.5928,29.6276],[69.6228,29.6393],[69.632,29.6657],[69.6514,29.6846],[69.7049,29.7091],[69.738,29.7202],[69.7509,29.7385],[69.7895,29.7655],[69.8036,29.7857],[69.833,29.8513],[69.8788,29.8953],[69.8888,29.9046],[69.9127,29.9604],[69.9335,30.0254],[69.9721,30.0603],[69.9887,30.105],[69.9881,30.1393],[70.0052,30.1835],[70.0175,30.1835],[70.0218,30.2178],[70.0518,30.2258],[70.0739,30.2552],[70.0732,30.2742],[70.015,30.2785],[69.9924,30.2527],[69.9752,30.2619],[69.9868,30.2926],[69.9611,30.292],[69.965,30.322],[69.9985,30.3839],[69.9991,30.4341],[70.0047,30.4531],[70.0439,30.4979],[70.0519,30.5201],[70.0881,30.5873],[70.0959,30.6266],[70.0887,30.6891],[70.1109,30.7353],[70.1547,30.7333],[70.1683,30.7743],[70.2027,30.7755],[70.2185,30.7839],[70.2229,30.8265],[70.2295,30.838],[70.2694,30.8405],[70.2731,30.8607],[70.2535,30.8767],[70.2689,30.9414],[70.2687,31.0354],[70.2877,31.0611],[70.2945,31.0862],[70.2957,31.1501],[70.2888,31.1624],[70.2691,31.1847],[70.2595,31.2346],[70.2733,31.2411],[70.2673,31.3177],[70.2715,31.3669],[70.2781,31.3735],[70.2795,31.4217],[70.2673,31.462],[70.2661,31.4885],[70.2559,31.5053],[70.2229,31.4807],[70.2037,31.4765],[70.1723,31.4391],[70.1169,31.4253],[70.1169,31.4427],[70.0941,31.4421],[70.0965,31.4205],[70.0719,31.3845],[70.0562,31.385],[70.0459,31.4301],[70.023,31.4921],[70.011,31.5107],[69.9707,31.5095],[69.9448,31.5402],[69.9442,31.5697],[69.952,31.7279],[69.9466,31.7665],[69.9575,31.7827],[69.9412,31.7989],[69.9388,31.8507],[69.9568,31.873],[69.9596,31.8962],[69.9629,31.9319],[69.9388,31.9313],[69.9238,31.9211],[69.9075,31.8928],[69.881,31.8802],[69.854,31.8844],[69.851,31.9205],[69.8738,31.9464],[69.8798,31.9789],[69.8058,32.0113],[69.8022,32.0216],[69.8203,32.0354],[69.851,32.0914],[69.8491,32.0986],[69.7619,32.0848],[69.7445,32.0763],[69.6909,32.0685],[69.6578,32.0565],[69.6283,32.0011],[69.6031,31.9903],[69.5874,31.9722],[69.5724,31.9704],[69.5533,31.9545],[69.5357,31.9578],[69.523,31.9722],[69.4923,31.9638],[69.4225,31.9584],[69.375,31.962],[69.3233,31.9471],[69.3246,31.9262],[69.2825,31.9091],[69.2689,31.8823],[69.2385,31.8605],[69.1994,31.8456],[69.1823,31.7971],[69.1575,31.7781],[69.1562,31.7623],[69.1234,31.7185],[69.1228,31.7034],[69.0736,31.6641],[69.056,31.659],[69.0309,31.6355],[69.0268,31.6207],[68.9915,31.6268],[68.9524,31.6431],[68.9394,31.61],[68.9148,31.5992],[68.853,31.5977],[68.8033,31.6124],[68.7855,31.6357],[68.7783,31.6595],[68.7172,31.6942],[68.7113,31.7538],[68.6986,31.771],[68.6367,31.7741],[68.5774,31.8226],[68.5636,31.8217],[68.5252,31.7981],[68.491,31.7848],[68.4419,31.7583],[68.4761,31.7455],[68.5119,31.7521],[68.5815,31.7485],[68.5845,31.7388],[68.5569,31.7112],[68.5344,31.7148],[68.5144,31.73],[68.446,31.7419],[68.4158,31.7567],[68.3773,31.7569],[68.2983,31.7517],[68.2753,31.7603],[68.2547,31.7801],[68.2599,31.7991],[68.2455,31.8039],[68.1873,31.8089],[68.1729,31.8309],[68.1341,31.7828],[68.1228,31.7583],[68.0722,31.7163],[68.063,31.6918],[68.0134,31.6611],[67.9541,31.6315],[67.9055,31.6217],[67.885,31.6264],[67.8497,31.6176],[67.8216,31.5947],[67.8134,31.5829],[67.7633,31.5508],[67.749,31.5323],[67.7199,31.5159],[67.6519,31.5139],[67.6202,31.5303],[67.5548,31.5284],[67.5791,31.497],[67.6013,31.457],[67.5981,31.4295],[67.642,31.3915],[67.6795,31.4003],[67.748,31.4106],[67.7633,31.4055],[67.7822,31.3843],[67.79,31.3515],[67.7868,31.3397],[67.7597,31.3231],[67.6989,31.3134],[67.6677,31.2914],[67.6161,31.271],[67.5884,31.271],[67.5306,31.2559],[67.4944,31.2378],[67.4514,31.2336],[67.4177,31.2163],[67.3476,31.2158],[67.2613,31.2035],[67.2367,31.2163],[67.1951,31.2153],[67.1814,31.2327],[67.161,31.2382],[67.1041,31.2352],[67.093,31.2281],[67.0549,31.2264],[67.0339,31.2349],[67.0378,31.2645],[67.049,31.2669],[67.0496,31.2972],[67.0291,31.3099],[66.9595,31.3094],[66.9186,31.2986],[66.8598,31.2746],[66.8414,31.2634],[66.8153,31.224],[66.7764,31.2061],[66.7309,31.2086],[66.7194,31.1949],[66.7115,31.1596],[66.6925,31.1157],[66.686,31.0816],[66.6772,31.0665],[66.6454,31.0416],[66.622,31.0154],[66.5811,30.9842],[66.5523,30.9682],[66.5143,30.961],[66.4604,30.9566],[66.42,30.9453],[66.3974,30.9451],[66.3885,30.9296],[66.347,30.7615],[66.3374,30.7415],[66.3073,30.6334],[66.2961,30.6085],[66.2857,30.564],[66.302,30.5037],[66.3298,30.4867],[66.3421,30.4837],[66.3413,30.4526],[66.3564,30.4165],[66.3374,30.3785],[66.3381,30.3156],[66.3197,30.2488],[66.3228,30.2412],[66.2889,30.1892],[66.2875,30.1538],[66.2706,30.1361],[66.2411,30.066],[66.2509,30.045],[66.3066,30.0057],[66.3584,29.9743],[66.3689,29.9616],[66.3531,29.9515],[66.3356,29.9198],[66.3072,29.9021],[66.2655,29.8642],[66.254,29.8525],[66.2108,29.8409],[66.1567,29.821],[66.1051,29.8092],[65.8914,29.7551],[65.8008,29.7246],[65.5816,29.6712],[65.4278,29.6299],[65.3792,29.6146],[65.3349,29.6059],[65.1744,29.5608],[65.1316,29.5525],[65.0702,29.5353],[64.9988,29.5379],[64.9628,29.553],[64.8717,29.5596],[64.8023,29.5681],[64.7256,29.5714],[64.6706,29.5799],[64.6194,29.5811],[64.4655,29.57],[64.4176,29.5445],[64.3633,29.5497],[64.3161,29.5301],[64.2673,29.5219],[64.2477,29.5029],[64.2181,29.4965],[64.1944,29.4696],[64.1569,29.4442],[64.1444,29.399],[64.111,29.3774],[64.0854,29.3866],[64.0481,29.4174],[63.9518,29.4338],[63.8581,29.4462],[63.594,29.4901],[63.5383,29.4901],[63.3844,29.477],[63.2952,29.4728],[63.2412,29.467],[63.2392,29.463],[63.1426,29.4527],[62.7197,29.4122],[62.6243,29.4023],[62.5224,29.3954],[62.4572,29.3852],[62.3137,29.4278],[62.22,29.4573],[62.1021,29.4894],[61.9769,29.5274],[61.6637,29.6172],[61.5464,29.6545],[60.8919,29.8517],[60.9023,29.8327],[60.9777,29.7423],[61.0302,29.6844],[61.0838,29.6178],[61.1304,29.5667],[61.1639,29.5359],[61.1847,29.5097],[61.2234,29.4756],[61.2568,29.4403],[61.3741,29.3459],[61.382,29.3315],[61.3544,29.2765],[61.3879,29.209],[61.4272,29.1926],[61.4138,29.1359],[61.4495,29.1244],[61.4781,29.102],[61.4789,29.0812],[61.5031,29.0573],[61.5038,29.0019],[61.521,28.9921],[61.5471,28.9633],[61.568,28.9207],[61.6165,28.8604],[61.629,28.8348],[61.6722,28.7785],[61.7148,28.7431],[61.7646,28.6913],[61.8033,28.6396],[61.8334,28.6258],[61.8622,28.6003],[61.9507,28.5485],[61.9802,28.542],[62.0254,28.5216],[62.0378,28.5066],[62.1171,28.4843],[62.1682,28.4876],[62.2167,28.4732],[62.2357,28.4633],[62.2868,28.4659],[62.3399,28.4443],[62.3687,28.4384],[62.4231,28.4135],[62.4715,28.3774],[62.4996,28.3315],[62.5522,28.2998],[62.594,28.2531],[62.7927,28.2816],[62.7954,28.2154],[62.7918,28.1533],[62.7709,28.0299],[62.7936,27.9786],[62.7931,27.9523],[62.8034,27.8884],[62.8203,27.8021],[62.8358,27.6946],[62.8403,27.6266],[62.8516,27.5481],[62.8566,27.4655],[62.8099,27.3371],[62.834,27.3031],[62.8271,27.2886],[62.7831,27.2464],[62.7872,27.2301],[62.8058,27.2187],[62.8535,27.2106],[62.8798,27.2156],[62.9129,27.1988],[62.9478,27.1902],[62.9714,27.1924],[63.0603,27.2333],[63.0898,27.2328],[63.1814,27.2428],[63.2509,27.2069],[63.293,27.1834],[63.3175,27.1339],[63.2619,27.0868],[63.2554,27.0631],[63.2568,26.9275],[63.2813,26.8812],[63.2781,26.8622],[63.2118,26.8526],[63.1967,26.8458],[63.1923,26.8145],[63.2023,26.7655],[63.2023,26.7429],[63.1756,26.6685],[63.1706,26.6453],[63.0748,26.6417],[63.0517,26.6353],[62.9859,26.653],[62.9224,26.6458],[62.8521,26.644],[62.8299,26.6508],[62.7765,26.6527],[62.7476,26.644],[62.7253,26.6208],[62.6938,26.6131],[62.6629,26.6136],[62.6019,26.5841],[62.5463,26.5791],[62.5051,26.58],[62.4629,26.5664],[62.4348,26.5664],[62.398,26.5365],[62.364,26.5378],[62.3074,26.5209],[62.2982,26.4929],[62.3104,26.4716],[62.2796,26.4448],[62.2587,26.4457],[62.2798,26.3778],[62.2554,26.3616],[62.2514,26.3455],[62.2729,26.3298],[62.2491,26.3199],[62.2289,26.3304],[62.2347,26.3166],[62.2194,26.2956],[62.2154,26.2698],[62.1408,26.271],[62.1047,26.2832],[62.0985,26.3039],[62.0737,26.3253],[62.035,26.3337],[62.0304,26.3142],[62.0055,26.286],[61.9849,26.2809],[61.9638,26.2619],[61.9216,26.2539],[61.9,26.2623],[61.895,26.2323],[61.8613,26.1757],[61.8431,26.0667],[61.8437,26.037],[61.8333,26.0289],[61.8484,26.0189],[61.8396,26.0097],[61.8271,25.9612],[61.834,25.9109],[61.8584,25.9151],[61.8752,25.8941],[61.8931,25.8901],[61.8816,25.8799],[61.8446,25.8781],[61.8252,25.8406],[61.8451,25.8397],[61.849,25.8047],[61.8422,25.7448],[61.8124,25.7385],[61.8005,25.7179],[61.7761,25.7309],[61.7479,25.7327],[61.7373,25.7411],[61.7273,25.7189],[61.6986,25.6909],[61.6963,25.6675],[61.679,25.6586],[61.6603,25.4294],[61.6532,25.3117],[61.6183,25.1761],[61.6705,25.1692],[61.7089,25.1543],[61.7436,25.132],[61.7558,25.1316],[61.7676,25.0876],[61.7372,25.0731],[61.7438,25.0519],[61.7298,25.0419],[61.7318,25.023],[61.7805,25.0167],[61.7942,25.0259],[61.8509,25.0356],[61.8625,25.0863],[61.8782,25.1002],[61.9168,25.1104],[61.955,25.1117],[62.0893,25.1011],[62.0727,25.1184],[62.0753,25.1373],[62.0544,25.1517],[62.067,25.1862],[62.1013,25.2057],[62.1322,25.215],[62.1732,25.2199],[62.2228,25.2174],[62.2714,25.202],[62.3033,25.1768],[62.3154,25.1564],[62.3157,25.119],[62.2569,25.1065],[62.2689,25.099],[62.3079,25.0937],[62.36,25.0924],[62.3839,25.1047],[62.3327,25.1107],[62.3288,25.1433],[62.3386,25.1649],[62.3613,25.1884],[62.4177,25.2142],[62.4696,25.2217],[62.4587,25.2335],[62.4755,25.2577],[62.5403,25.2686],[62.599,25.2703],[62.7229,25.2538],[62.7558,25.2467],[62.807,25.2495],[62.979,25.2135],[63.0073,25.2111],[63.0258,25.2238],[63.0787,25.2347],[63.0905,25.2545],[63.1171,25.2585],[63.2782,25.235],[63.3852,25.2223],[63.4813,25.2058],[63.509,25.2244],[63.4773,25.2439],[63.4807,25.2631],[63.4691,25.2749],[63.4891,25.3163],[63.5149,25.3383],[63.595,25.3742],[63.6774,25.3853],[63.7166,25.3828],[63.7695,25.3729],[63.88,25.3444],[64.0475,25.3251],[64.0619,25.3285],[64.0679,25.3488],[64.0434,25.3865],[64.0425,25.4023],[64.0199,25.404],[64.0112,25.3851],[63.9935,25.3851],[63.9699,25.4209],[63.9981,25.4379],[64.0103,25.4586],[64.028,25.4697],[64.0819,25.4613],[64.1045,25.4698],[64.1562,25.4613],[64.1766,25.4522],[64.1477,25.3992],[64.1346,25.4051],[64.091,25.3905],[64.1309,25.3656],[64.1223,25.3538],[64.1005,25.3574],[64.1012,25.3235],[64.1384,25.3238],[64.2287,25.3107],[64.2286,25.3014],[64.2872,25.2873],[64.3394,25.2692],[64.3743,25.2529],[64.3787,25.2441],[64.411,25.2381],[64.4768,25.246],[64.474,25.2574],[64.5228,25.2735],[64.5754,25.2605],[64.5952,25.2484],[64.6149,25.2231],[64.6184,25.2077],[64.5759,25.1782],[64.5822,25.1567],[64.6946,25.1845],[64.6845,25.1994],[64.6464,25.2059],[64.6386,25.2166],[64.6406,25.2494],[64.6616,25.2832],[64.6891,25.3024],[64.7284,25.3145],[64.8056,25.3235],[64.8652,25.3264],[64.9437,25.3243]]]}},{"type":"Feature","properties":{"province_code":"IS","name":"Islamabad Capital Territory"},"geometry":{"type":"Polygon","coordinates":[[[73.2268,33.7963],[73.1838,33.8088],[73.1082,33.783],[73.093,33.7896],[73.0201,33.7744],[73.0108,33.7598],[72.9485,33.73],[72.9246,33.7365],[72.8929,33.7227],[72.8606,33.7218],[72.8249,33.6939],[72.851,33.6651],[72.9095,33.577],[72.9837,33.6137],[72.9753,33.6273],[72.9881,33.634],[73.0001,33.621],[73.0255,33.6303],[73.0854,33.6656],[73.1704,33.5521],[73.1638,33.5413],[73.1016,33.5139],[73.1093,33.4878],[73.1278,33.4565],[73.1911,33.4824],[73.2327,33.5065],[73.27,33.5467],[73.2798,33.569],[73.2933,33.6244],[73.313,33.6332],[73.3397,33.6328],[73.3711,33.6814],[73.3459,33.6835],[73.3302,33.7085],[73.2987,33.7302],[73.2641,33.7738],[73.2268,33.7963]]]}},{"type":"Feature","properties":{"province_code":"KP","name":"Khyber Pakhtunkhwa"},"geometry":{"type":"Polygon","coordinates":[[[71.2999,32.5333],[71.2979,32.5101],[71.2774,32.5121],[71.2628,32.4889],[71.2308,32.5103],[71.2463,32.536],[71.2417,32.5485],[71.1954,32.5784],[71.1622,32.595],[71.1655,32.6089],[71.1501,32.6525],[71.1521,32.6691],[71.1346,32.6934],[71.1423,32.7224],[71.1243,32.7539],[71.1256,32.7632],[71.1089,32.8026],[71.1336,32.8089],[71.1389,32.8672],[71.1455,32.8745],[71.1415,32.9229],[71.1594,32.9381],[71.1707,32.962],[71.1932,32.9766],[71.2204,32.9799],[71.2356,32.9931],[71.3145,33.015],[71.337,32.9905],[71.3569,32.9905],[71.3781,33.0044],[71.3854,32.9984],[71.4159,33.009],[71.4231,33.0037],[71.4516,33.013],[71.4636,33.0395],[71.4775,33.0488],[71.4589,33.0693],[71.4377,33.0707],[71.4231,33.0919],[71.4483,33.1296],[71.4304,33.1687],[71.4351,33.1774],[71.4079,33.1946],[71.4185,33.2277],[71.4433,33.2363],[71.4549,33.2191],[71.4887,33.2151],[71.5053,33.1999],[71.5252,33.1986],[71.5186,33.2178],[71.5471,33.2297],[71.5994,33.188],[71.6027,33.133],[71.6524,33.074],[71.6716,33.0733],[71.6869,33.0621],[71.7131,33.0587],[71.7207,33.0574],[71.7134,33.1118],[71.7538,33.1535],[71.7598,33.2012],[71.7127,33.2463],[71.7094,33.2867],[71.728,33.3039],[71.7319,33.3198],[71.7174,33.343],[71.7333,33.3642],[71.7995,33.3914],[71.8313,33.4093],[71.8558,33.404],[71.8711,33.4106],[71.8671,33.4477],[71.9486,33.508],[71.9692,33.5405],[71.9546,33.565],[71.9771,33.5829],[71.9857,33.667],[72.0063,33.7121],[72.0176,33.7188],[72.0401,33.7532],[72.0831,33.7658],[72.0719,33.7837],[72.1037,33.7857],[72.1275,33.7757],[72.1931,33.7605],[72.2196,33.7717],[72.2475,33.7638],[72.2369,33.783],[72.2395,33.8672],[72.2317,33.8943],[72.2386,33.8993],[72.2561,33.9122],[72.3239,33.948],[72.3449,33.9467],[72.3813,33.9579],[72.3813,33.9725],[72.4038,33.9745],[72.4025,33.9917],[72.4403,34.0037],[72.4469,33.9937],[72.543,33.999],[72.5475,33.9901],[72.5516,33.9613],[72.5993,33.954],[72.645,33.9394],[72.6543,33.9261],[72.6291,33.9162],[72.6285,33.9037],[72.6119,33.8937],[72.6066,33.8745],[72.6384,33.8784],[72.6404,33.8672],[72.6994,33.8718],[72.7093,33.8817],[72.708,33.9023],[72.7358,33.9076],[72.7259,33.9215],[72.7709,33.9513],[72.7862,33.9401],[72.7915,33.8884],[72.8359,33.887],[72.8392,33.8526],[72.8233,33.844],[72.8206,33.8254],[72.8452,33.8354],[72.8703,33.8148],[72.8539,33.7997],[72.8248,33.8002],[72.8293,33.7678],[72.8597,33.7664],[72.9227,33.7466],[72.9246,33.7365],[72.9485,33.73],[73.0108,33.7598],[73.0201,33.7744],[73.093,33.7896],[73.1082,33.783],[73.1838,33.8088],[73.2198,33.8176],[73.2414,33.8254],[73.2606,33.8486],[73.2686,33.8367],[73.3044,33.8466],[73.3256,33.8665],[73.3501,33.9208],[73.3832,33.942],[73.3885,33.9652],[73.4077,33.9758],[73.421,33.9632],[73.4356,33.9679],[73.4866,34.0169],[73.5014,34.018],[73.511,34.0187],[73.5149,34.0369],[73.503,34.0691],[73.4951,34.1352],[73.4951,34.1872],[73.499,34.2076],[73.4736,34.2562],[73.4883,34.2793],[73.4804,34.2912],[73.4696,34.2799],[73.4516,34.3003],[73.4403,34.3263],[73.4011,34.3708],[73.3984,34.3783],[73.421,34.3986],[73.4329,34.4354],[73.429,34.4693],[73.4442,34.5054],[73.4357,34.5269],[73.4482,34.536],[73.4533,34.5693],[73.4957,34.5772],[73.5375,34.5716],[73.5567,34.588],[73.6059,34.5851],[73.6279,34.5772],[73.6364,34.5648],[73.6567,34.5625],[73.6658,34.5801],[73.659,34.5993],[73.6997,34.6479],[73.6635,34.6626],[73.6867,34.692],[73.6856,34.7055],[73.7037,34.7191],[73.7234,34.7468],[73.728,34.7643],[73.7777,34.7949],[73.8308,34.7915],[73.8382,34.8141],[73.8653,34.809],[73.8981,34.8197],[73.9275,34.8113],[73.9343,34.8316],[73.9682,34.8356],[73.9778,34.8661],[74.0219,34.874],[74.0451,34.8904],[74.0389,34.9141],[74.0716,34.9379],[74.0603,34.982],[74.0694,34.9967],[74.0971,35.0006],[74.1112,35.0176],[74.0767,35.0475],[74.0948,35.0911],[74.1286,35.1052],[74.1319,35.1193],[74.1159,35.1234],[74.1123,35.1532],[74.0969,35.146],[74.0803,35.1561],[74.0357,35.1496],[74.0078,35.171],[74.003,35.1846],[73.9577,35.1652],[73.9258,35.2102],[73.9008,35.212],[73.8711,35.2048],[73.8474,35.2262],[73.8325,35.2274],[73.8093,35.2429],[73.7655,35.2209],[73.7499,35.231],[73.7303,35.2737],[73.7119,35.2797],[73.7101,35.3029],[73.6994,35.3142],[73.6929,35.3492],[73.6982,35.3712],[73.7273,35.4193],[73.7529,35.4324],[73.7547,35.4431],[73.7945,35.449],[73.7856,35.4633],[73.7856,35.5245],[73.7511,35.5239],[73.7351,35.5316],[73.6649,35.531],[73.6169,35.5411],[73.4999,35.5429],[73.4178,35.5251],[73.4011,35.5364],[73.3952,35.5869],[73.3643,35.6005],[73.3381,35.6433],[73.331,35.6629],[73.2966,35.6623],[73.2752,35.6695],[73.2401,35.6576],[73.236,35.6677],[73.192,35.6772],[73.1831,35.6897],[73.1486,35.7129],[73.126,35.7212],[73.11,35.7491],[73.1201,35.7651],[73.1581,35.7616],[73.1878,35.7853],[73.2003,35.7871],[73.2003,35.8269],[73.1783,35.8602],[73.1498,35.8436],[73.1291,35.8459],[73.0922,35.8756],[73.0732,35.8608],[73.0559,35.862],[73.0263,35.8423],[72.9989,35.8626],[72.9604,35.8489],[72.9038,35.8418],[72.8919,35.8495],[72.8908,35.8774],[72.8367,35.8733],[72.8195,35.8881],[72.8095,35.8625],[72.7897,35.8524],[72.7857,35.8481],[72.6834,35.8204],[72.6274,35.8394],[72.5685,35.8518],[72.552,35.8803],[72.5282,35.8977],[72.5107,35.9022],[72.5182,35.9244],[72.5497,35.9725],[72.5681,36.0123],[72.5658,36.0289],[72.5301,36.0604],[72.5212,36.0789],[72.5236,36.1115],[72.5402,36.1365],[72.542,36.2084],[72.5491,36.2327],[72.5937,36.2696],[72.6525,36.2636],[72.6864,36.2755],[72.7218,36.3135],[72.7595,36.3272],[72.8183,36.3646],[72.8483,36.3764],[72.8572,36.3883],[72.8632,36.4334],[72.8715,36.4524],[72.8884,36.4633],[72.924,36.474],[72.9674,36.4769],[72.9704,36.509],[73.0102,36.5245],[73.0411,36.5476],[73.0547,36.5869],[73.075,36.6094],[73.0577,36.6463],[73.0494,36.6849],[73.0619,36.6974],[73.1249,36.711],[73.1522,36.73],[73.214,36.7176],[73.2681,36.7211],[73.3744,36.758],[73.4089,36.7586],[73.4493,36.7413],[73.5069,36.73],[73.5687,36.736],[73.5788,36.7188],[73.6037,36.7098],[73.6566,36.7069],[73.6875,36.7229],[73.7345,36.7188],[73.7755,36.7283],[73.8343,36.7098],[73.861,36.7247],[73.8681,36.755],[73.8569,36.78],[73.8266,36.8085],[73.7933,36.812],[73.785,36.8346],[73.7481,36.8423],[73.7208,36.8423],[73.684,36.8655],[73.6507,36.9155],[73.6385,36.9116],[73.594,36.916],[73.5673,36.9009],[73.5309,36.8956],[73.5113,36.9045],[73.4401,36.903],[73.3966,36.9053],[73.3574,36.8893],[73.3379,36.8938],[73.3023,36.8795],[73.282,36.8911],[73.2436,36.8973],[73.1836,36.8921],[73.1467,36.9027],[73.0862,36.8973],[73.0613,36.8911],[73.0195,36.868],[72.9537,36.8813],[72.9387,36.8596],[72.8763,36.8487],[72.7763,36.8541],[72.7514,36.858],[72.7271,36.8521],[72.6889,36.8512],[72.6453,36.8601],[72.6248,36.8494],[72.5715,36.8414],[72.5137,36.8059],[72.4959,36.7827],[72.4078,36.7845],[72.3909,36.7703],[72.3385,36.7676],[72.3029,36.7516],[72.2691,36.7587],[72.2388,36.7587],[72.2015,36.6982],[72.2175,36.6751],[72.1961,36.6591],[72.1819,36.6662],[72.1054,36.6555],[72.1019,36.636],[72.1099,36.6084],[72.0618,36.6033],[72.0183,36.5721],[71.9934,36.5757],[71.9338,36.5641],[71.9142,36.5126],[71.8386,36.5108],[71.819,36.4663],[71.8252,36.4414],[71.8564,36.437],[71.867,36.4227],[71.8617,36.4058],[71.8155,36.4023],[71.7888,36.4094],[71.7372,36.4468],[71.7185,36.4599],[71.6936,36.4625],[71.6598,36.4839],[71.642,36.4803],[71.6251,36.4634],[71.6197,36.4243],[71.6046,36.4065],[71.5628,36.3807],[71.5557,36.3665],[71.5735,36.3531],[71.5708,36.3336],[71.5317,36.3265],[71.5195,36.3108],[71.4854,36.2998],[71.4589,36.2751],[71.4428,36.2758],[71.4108,36.2206],[71.3615,36.2011],[71.3438,36.174],[71.2926,36.1561],[71.249,36.1287],[71.2452,36.098],[71.2301,36.0932],[71.2075,36.0706],[71.2005,36.0426],[71.2653,35.9964],[71.2922,35.9892],[71.3216,35.9667],[71.377,35.9602],[71.3846,35.9389],[71.3846,35.9026],[71.4325,35.8876],[71.4653,35.8353],[71.489,35.8095],[71.4825,35.7686],[71.5062,35.7417],[71.5444,35.7272],[71.5503,35.7137],[71.5326,35.6776],[71.4999,35.6445],[71.5073,35.6206],[71.5304,35.6061],[71.6106,35.5748],[71.6146,35.5666],[71.5923,35.5214],[71.5936,35.4978],[71.6467,35.4558],[71.6506,35.4427],[71.6397,35.4204],[71.6219,35.4053],[71.5693,35.3327],[71.5568,35.3106],[71.5582,35.2881],[71.6348,35.2304],[71.67,35.2236],[71.6641,35.1924],[71.6359,35.1534],[71.616,35.1368],[71.5944,35.1341],[71.5438,35.102],[71.532,35.0837],[71.5372,35.0546],[71.5549,35.0208],[71.5084,34.9965],[71.51,34.9798],[71.5029,34.9635],[71.4454,34.9462],[71.416,34.9271],[71.3571,34.9118],[71.3112,34.8792],[71.2948,34.8504],[71.2804,34.8052],[71.2404,34.781],[71.2345,34.7606],[71.1728,34.7309],[71.1441,34.7148],[71.1052,34.7067],[71.0963,34.6532],[71.1081,34.6244],[71.0896,34.5862],[71.0616,34.5754],[71.0229,34.5722],[71.0035,34.5642],[70.9941,34.5425],[70.9921,34.5064],[70.9967,34.4828],[71.0126,34.4592],[71.0546,34.4312],[71.0727,34.399],[71.0837,34.3909],[71.1684,34.3649],[71.1731,34.3386],[71.1515,34.2999],[71.1245,34.2719],[71.1364,34.2197],[71.1245,34.2031],[71.1278,34.1637],[71.0998,34.1266],[71.074,34.1015],[71.0788,34.0604],[71.0668,34.0518],[71.0341,34.048],[71.0137,34.0281],[70.983,34.0265],[70.924,34.0078],[70.8926,33.9775],[70.8484,33.9818],[70.8012,33.9717],[70.7792,33.9554],[70.7414,33.961],[70.6831,33.9594],[70.656,33.9534],[70.5885,33.9641],[70.5385,33.9453],[70.5261,33.9533],[70.5052,33.9451],[70.474,33.9436],[70.4444,33.9531],[70.4223,33.962],[70.3334,33.962],[70.2909,33.9748],[70.2408,33.9728],[70.1851,33.9922],[70.1435,34.0106],[70.1053,34.0086],[70.0833,34.0137],[70.0356,34.0402],[70.0025,34.0489],[69.9887,34.0367],[69.9253,34.0377],[69.9028,34.0305],[69.8959,34.0137],[69.9003,33.9763],[69.8795,33.9691],[69.8645,33.9528],[69.8625,33.9331],[69.911,33.8833],[69.9208,33.8433],[69.9509,33.8224],[69.9732,33.7562],[70.0076,33.7345],[70.0429,33.7304],[70.0946,33.7156],[70.1293,33.7212],[70.1523,33.6931],[70.1475,33.6605],[70.1606,33.6468],[70.1921,33.6383],[70.194,33.6271],[70.1753,33.5279],[70.2127,33.489],[70.2464,33.464],[70.2612,33.4302],[70.296,33.4297],[70.3166,33.3939],[70.3155,33.3713],[70.3287,33.3372],[70.324,33.333],[70.2904,33.3277],[70.2773,33.3093],[70.207,33.2467],[70.1671,33.2334],[70.1446,33.2145],[70.0925,33.2088],[70.0725,33.2145],[70.0265,33.1439],[69.9999,33.1352],[69.9457,33.126],[69.9166,33.1025],[69.8563,33.0928],[69.7908,33.1255],[69.7663,33.1117],[69.7473,33.1122],[69.7213,33.0923],[69.6405,33.0933],[69.5847,33.0969],[69.5607,33.0703],[69.5133,33.0328],[69.4969,32.9804],[69.4943,32.9418],[69.5008,32.9155],[69.5172,32.8841],[69.5402,32.8627],[69.5085,32.8473],[69.4713,32.8487],[69.4318,32.8024],[69.3997,32.7792],[69.3976,32.7563],[69.4487,32.72],[69.4392,32.6856],[69.4523,32.6587],[69.4133,32.6048],[69.3909,32.5651],[69.3316,32.5416],[69.2958,32.5381],[69.242,32.4589],[69.2492,32.4136],[69.282,32.354],[69.2813,32.2846],[69.2695,32.2721],[69.2774,32.1955],[69.2748,32.1391],[69.2905,32.0932],[69.2925,32.0251],[69.297,32.0035],[69.3147,31.9805],[69.3233,31.9471],[69.375,31.962],[69.4225,31.9584],[69.4923,31.9638],[69.523,31.9722],[69.5357,31.9578],[69.5533,31.9545],[69.5724,31.9704],[69.5874,31.9722],[69.6031,31.9903],[69.6283,32.0011],[69.6578,32.0565],[69.6909,32.0685],[69.7445,32.0763],[69.7619,32.0848],[69.8491,32.0986],[69.851,32.0914],[69.8203,32.0354],[69.8022,32.0216],[69.8058,32.0113],[69.8798,31.9789],[69.8738,31.9464],[69.851,31.9205],[69.854,31.8844],[69.881,31.8802],[69.9075,31.8928],[69.9238,31.9211],[69.9388,31.9313],[69.9629,31.9319],[69.9596,31.8962],[69.9568,31.873],[69.9388,31.8507],[69.9412,31.7989],[69.9575,31.7827],[69.9466,31.7665],[69.952,31.7279],[69.9442,31.5697],[69.9448,31.5402],[69.9707,31.5095],[70.011,31.5107],[70.023,31.4921],[70.0459,31.4301],[70.0562,31.385],[70.0719,31.3845],[70.0965,31.4205],[70.0941,31.4421],[70.1169,31.4427],[70.1169,31.4253],[70.1723,31.4391],[70.2037,31.4765],[70.2229,31.4807],[70.2559,31.5053],[70.2661,31.4885],[70.2673,31.462],[70.2795,31.4217],[70.2781,31.3735],[70.2715,31.3669],[70.2673,31.3177],[70.2733,31.2411],[70.2595,31.2346],[70.2691,31.1847],[70.2888,31.1624],[70.3693,31.1898],[70.4042,31.1984],[70.4042,31.2094],[70.4272,31.2431],[70.451,31.2868],[70.4676,31.2941],[70.51,31.2988],[70.5332,31.3094],[70.5445,31.3286],[70.563,31.3385],[70.6306,31.316],[70.6777,31.314],[70.6962,31.3319],[70.7386,31.3319],[70.7472,31.3133],[70.7674,31.3056],[70.7837,31.31],[70.7863,31.3478],[70.8071,31.3604],[70.8347,31.3829],[70.842,31.4214],[70.8957,31.4379],[70.8864,31.4445],[70.895,31.4803],[70.8818,31.4863],[70.8705,31.5128],[70.9003,31.5128],[70.9023,31.5234],[70.8784,31.5473],[70.8804,31.5685],[70.9003,31.5865],[70.8851,31.6103],[70.8951,31.6301],[70.8851,31.6361],[70.897,31.6692],[70.9129,31.6877],[70.9427,31.6857],[70.9301,31.6983],[70.9607,31.7474],[70.999,31.7752],[71.0223,31.8157],[71.0355,31.864],[71.064,31.8806],[71.062,31.9018],[71.0726,31.9588],[71.0677,31.9672],[71.0713,32.0025],[71.0653,32.025],[71.0865,32.0356],[71.109,32.1039],[71.1057,32.1238],[71.1157,32.1615],[71.1382,32.1589],[71.1548,32.1668],[71.1731,32.1933],[71.1647,32.2338],[71.1857,32.2663],[71.2098,32.2828],[71.2151,32.302],[71.2833,32.363],[71.3184,32.363],[71.3423,32.3729],[71.3284,32.3888],[71.3264,32.4113],[71.3443,32.4153],[71.3337,32.4279],[71.3469,32.4663],[71.3509,32.4962],[71.3231,32.5313],[71.2999,32.5333]]]}},{"type":"Feature","properties":{"province_code":"PB","name":"Punjab"},"geometry":{"type":"MultiPolygon","coordinates":[[[[69.5783,28.2009],[69.5258,28.2217],[69.515,28.2425],[69.4755,28.2682],[69.476,28.2317],[69.4657,28.2174],[69.4776,28.205],[69.4887,28.2037],[69.5208,28.1778],[69.5248,28.1378],[69.5513,28.13],[69.5606,28.1441],[69.5605,28.17],[69.5783,28.2009]]],[[[69.6373,28.3539],[69.5823,28.3555],[69.5566,28.3991],[69.532,28.3894],[69.5582,28.3493],[69.5926,28.2882],[69.5941,28.2564],[69.6038,28.2318],[69.6422,28.2302],[69.6626,28.2381],[69.669,28.2523],[69.6933,28.2639],[69.7253,28.2418],[69.7419,28.2534],[69.7476,28.3139],[69.7379,28.3144],[69.7127,28.2934],[69.6948,28.3005],[69.6686,28.3355],[69.6373,28.3539]]],[[[70.9052,27.7071],[70.9494,27.7273],[70.9636,27.7282],[70.9992,27.7479],[71.0719,27.7775],[71.1085,27.7954],[71.2063,27.842],[71.2378,27.8525],[71.3566,27.8701],[71.4804,27.8733],[71.5003,27.8772],[71.587,27.8792],[71.6827,27.8907],[71.7929,27.9283],[71.833,27.9457],[71.8973,27.9668],[71.9026,28.0256],[71.9123,28.0525],[71.9183,28.1018],[71.9254,28.124],[71.9836,28.2],[72.0212,28.2363],[72.0561,28.2551],[72.0736,28.2712],[72.1313,28.3128],[72.177,28.3558],[72.1985,28.384],[72.219,28.4455],[72.2401,28.4874],[72.2616,28.5613],[72.2831,28.6109],[72.2979,28.6647],[72.3157,28.6927],[72.3656,28.7433],[72.3928,28.7796],[72.4238,28.7947],[72.4608,28.8037],[72.4918,28.8202],[72.6425,28.8985],[72.7161,28.9389],[72.8431,28.9894],[72.947,29.0266],[73.0063,29.155],[73.0845,29.2359],[73.1686,29.3801],[73.2014,29.4335],[73.2814,29.5703],[73.3411,29.7558],[73.3832,29.9026],[73.3978,29.9464],[73.5988,30.0202],[73.8066,30.0681],[73.823,30.0886],[73.9374,30.1712],[73.9725,30.1983],[73.9641,30.2552],[73.9311,30.3189],[73.9095,30.3411],[73.868,30.3658],[73.8678,30.3836],[73.8998,30.3966],[73.9165,30.4258],[73.9378,30.425],[73.929,30.4632],[73.9342,30.4904],[73.9484,30.4834],[73.946,30.4647],[73.9631,30.4564],[73.9632,30.4844],[73.9925,30.5142],[74.0195,30.5137],[74.0116,30.5339],[74.0295,30.5262],[74.0392,30.5431],[74.0569,30.5183],[74.0718,30.5227],[74.0908,30.5494],[74.0734,30.5545],[74.102,30.5794],[74.0953,30.6011],[74.105,30.6191],[74.1177,30.608],[74.1274,30.6349],[74.1486,30.6313],[74.1665,30.6491],[74.206,30.6763],[74.232,30.7244],[74.2602,30.7228],[74.2748,30.7368],[74.2738,30.7538],[74.2596,30.771],[74.3023,30.7797],[74.2938,30.7994],[74.3202,30.8278],[74.3205,30.846],[74.382,30.8605],[74.361,30.8738],[74.3659,30.8932],[74.3832,30.8954],[74.397,30.9093],[74.4225,30.9077],[74.4287,30.9312],[74.4193,30.941],[74.4662,30.9568],[74.4547,30.9641],[74.492,30.9746],[74.4982,30.964],[74.5162,30.9795],[74.5438,30.9911],[74.5396,31.009],[74.548,31.0325],[74.5745,31.0568],[74.5968,31.038],[74.6714,31.0536],[74.6963,31.0741],[74.7024,31.0923],[74.6893,31.128],[74.6664,31.1244],[74.6591,31.134],[74.6364,31.1182],[74.631,31.1328],[74.6031,31.1338],[74.6101,31.1117],[74.6007,31.088],[74.5512,31.0868],[74.5485,31.1219],[74.5103,31.132],[74.5152,31.152],[74.5116,31.1824],[74.5191,31.1834],[74.5245,31.2202],[74.5171,31.2268],[74.5328,31.2498],[74.5209,31.272],[74.5375,31.3011],[74.5264,31.3124],[74.5518,31.3539],[74.5539,31.3665],[74.5845,31.3802],[74.5965,31.4163],[74.6226,31.4301],[74.6435,31.4161],[74.6541,31.4278],[74.6386,31.4441],[74.6532,31.4544],[74.6096,31.4998],[74.5847,31.5001],[74.5842,31.5208],[74.6127,31.5272],[74.6159,31.5575],[74.5921,31.574],[74.5789,31.5997],[74.5554,31.6078],[74.5352,31.6776],[74.502,31.6956],[74.4899,31.7134],[74.504,31.7405],[74.5478,31.7496],[74.5625,31.7636],[74.5512,31.7787],[74.5539,31.8033],[74.573,31.8161],[74.5707,31.8372],[74.5907,31.8487],[74.597,31.8674],[74.6205,31.8876],[74.6362,31.8843],[74.6583,31.9104],[74.6915,31.9267],[74.719,31.9239],[74.7226,31.9429],[74.7564,31.9437],[74.7817,31.9559],[74.8186,31.9589],[74.8312,31.9808],[74.8287,31.9984],[74.8798,32.032],[74.8794,32.0538],[74.9047,32.0504],[74.9256,32.0666],[74.9934,32.0485],[75.0124,32.0358],[75.0325,32.0512],[75.0409,32.0428],[75.0913,32.0738],[75.1018,32.0592],[75.1237,32.0814],[75.1576,32.0818],[75.1744,32.0674],[75.1984,32.0827],[75.2025,32.1201],[75.2178,32.1197],[75.2225,32.0993],[75.2404,32.091],[75.2794,32.1179],[75.2853,32.1516],[75.2994,32.1534],[75.3211,32.1796],[75.3103,32.1946],[75.3313,32.2196],[75.3655,32.2197],[75.3751,32.229],[75.3727,32.2787],[75.3439,32.2789],[75.3499,32.2886],[75.3237,32.3021],[75.3364,32.3167],[75.3219,32.3435],[75.2988,32.3464],[75.2899,32.37],[75.2628,32.372],[75.247,32.3876],[75.2131,32.4027],[75.1928,32.401],[75.2008,32.421],[75.1909,32.4264],[75.1437,32.4147],[75.109,32.4603],[75.1088,32.4745],[75.0943,32.4724],[75.0235,32.4964],[75.0199,32.4683],[74.9837,32.4539],[74.9832,32.4471],[74.9451,32.451],[74.9399,32.4714],[74.9194,32.4657],[74.8783,32.4794],[74.885,32.4906],[74.8412,32.4934],[74.8198,32.4998],[74.8122,32.4808],[74.7688,32.4834],[74.7145,32.4778],[74.7104,32.4933],[74.6854,32.4941],[74.691,32.534],[74.6625,32.546],[74.6753,32.5651],[74.6526,32.5656],[74.6521,32.5886],[74.6389,32.6142],[74.6551,32.6148],[74.6641,32.6344],[74.6968,32.666],[74.6754,32.6844],[74.6663,32.6779],[74.6561,32.6967],[74.6606,32.7308],[74.6852,32.787],[74.7052,32.8149],[74.7062,32.8428],[74.6663,32.8252],[74.653,32.8297],[74.6325,32.8091],[74.6581,32.7867],[74.6394,32.7826],[74.6326,32.7523],[74.6215,32.7606],[74.5795,32.7499],[74.5694,32.7604],[74.5111,32.7428],[74.506,32.7581],[74.4813,32.7694],[74.4548,32.7897],[74.4304,32.7833],[74.3916,32.7674],[74.3718,32.7696],[74.3494,32.7826],[74.3413,32.8097],[74.3255,32.8142],[74.2016,32.8735],[74.1232,32.9056],[74.0748,32.9311],[74.053,32.9307],[74.001,32.9544],[73.984,32.9668],[73.945,33.02],[73.9258,33.0341],[73.9043,33.0392],[73.8778,33.0347],[73.8297,33.012],[73.7829,33.0189],[73.7461,33.0561],[73.7297,33.064],[73.6534,33.0804],[73.6341,33.0934],[73.624,33.1144],[73.6251,33.1319],[73.6703,33.1522],[73.6703,33.211],[73.6274,33.2415],[73.6247,33.2552],[73.6183,33.289],[73.6037,33.3191],[73.6083,33.3349],[73.5888,33.3418],[73.576,33.3774],[73.5827,33.4026],[73.6019,33.4349],[73.6302,33.4563],[73.6115,33.4919],[73.6121,33.5083],[73.6336,33.5264],[73.6257,33.5451],[73.6285,33.5677],[73.6019,33.6061],[73.572,33.6304],[73.577,33.6666],[73.5957,33.6807],[73.6008,33.6988],[73.5985,33.7395],[73.5669,33.7977],[73.5923,33.8627],[73.5946,33.8916],[73.5884,33.9074],[73.5691,33.9204],[73.5437,33.9543],[73.5347,33.9882],[73.511,34.0187],[73.5098,34.0186],[73.5014,34.018],[73.4866,34.0169],[73.4356,33.9679],[73.421,33.9632],[73.4077,33.9758],[73.3885,33.9652],[73.3832,33.942],[73.3501,33.9208],[73.3256,33.8665],[73.3044,33.8466],[73.2686,33.8367],[73.2606,33.8486],[73.2414,33.8254],[73.2198,33.8176],[73.1838,33.8088],[73.2268,33.7963],[73.2641,33.7738],[73.2987,33.7302],[73.3302,33.7085],[73.3459,33.6835],[73.3711,33.6814],[73.3397,33.6328],[73.313,33.6332],[73.2933,33.6244],[73.2798,33.569],[73.27,33.5467],[73.2327,33.5065],[73.1911,33.4824],[73.1278,33.4565],[73.1093,33.4878],[73.1016,33.5139],[73.1638,33.5413],[73.1704,33.5521],[73.0854,33.6656],[73.0255,33.6303],[73.0001,33.621],[72.9881,33.634],[72.9753,33.6273],[72.9837,33.6137],[72.9095,33.577],[72.851,33.6651],[72.8249,33.6939],[72.8606,33.7218],[72.8929,33.7227],[72.9246,33.7365],[72.9227,33.7466],[72.8597,33.7664],[72.8293,33.7678],[72.8248,33.8002],[72.8539,33.7997],[72.8703,33.8148],[72.8452,33.8354],[72.8206,33.8254],[72.8233,33.844],[72.8392,33.8526],[72.8359,33.887],[72.7915,33.8884],[72.7862,33.9401],[72.7709,33.9513],[72.7259,33.9215],[72.7358,33.9076],[72.708,33.9023],[72.7093,33.8817],[72.6994,33.8718],[72.6404,33.8672],[72.6384,33.8784],[72.6066,33.8745],[72.6119,33.8937],[72.6285,33.9037],[72.6291,33.9162],[72.6543,33.9261],[72.645,33.9394],[72.5993,33.954],[72.5516,33.9613],[72.5475,33.9901],[72.543,33.999],[72.4469,33.9937],[72.4403,34.0037],[72.4025,33.9917],[72.4038,33.9745],[72.3813,33.9725],[72.3813,33.9579],[72.3449,33.9467],[72.3239,33.948],[72.2561,33.9122],[72.2386,33.8993],[72.2317,33.8943],[72.2395,33.8672],[72.2369,33.783],[72.2475,33.7638],[72.2196,33.7717],[72.1931,33.7605],[72.1275,33.7757],[72.1037,33.7857],[72.0719,33.7837],[72.0831,33.7658],[72.0401,33.7532],[72.0176,33.7188],[72.0063,33.7121],[71.9857,33.667],[71.9771,33.5829],[71.9546,33.565],[71.9692,33.5405],[71.9486,33.508],[71.8671,33.4477],[71.8711,33.4106],[71.8558,33.404],[71.8313,33.4093],[71.7995,33.3914],[71.7333,33.3642],[71.7174,33.343],[71.7319,33.3198],[71.728,33.3039],[71.7094,33.2867],[71.7127,33.2463],[71.7598,33.2012],[71.7538,33.1535],[71.7134,33.1118],[71.7207,33.0574],[71.7131,33.0587],[71.6869,33.0621],[71.6716,33.0733],[71.6524,33.074],[71.6027,33.133],[71.5994,33.188],[71.5471,33.2297],[71.5186,33.2178],[71.5252,33.1986],[71.5053,33.1999],[71.4887,33.2151],[71.4549,33.2191],[71.4433,33.2363],[71.4185,33.2277],[71.4079,33.1946],[71.4351,33.1774],[71.4304,33.1687],[71.4483,33.1296],[71.4231,33.0919],[71.4377,33.0707],[71.4589,33.0693],[71.4775,33.0488],[71.4636,33.0395],[71.4516,33.013],[71.4231,33.0037],[71.4159,33.009],[71.3854,32.9984],[71.3781,33.0044],[71.3569,32.9905],[71.337,32.9905],[71.3145,33.015],[71.2356,32.9931],[71.2204,32.9799],[71.1932,32.9766],[71.1707,32.962],[71.1594,32.9381],[71.1415,32.9229],[71.1455,32.8745],[71.1389,32.8672],[71.1336,32.8089],[71.1089,32.8026],[71.1256,32.7632],[71.1243,32.7539],[71.1423,32.7224],[71.1346,32.6934],[71.1521,32.6691],[71.1501,32.6525],[71.1655,32.6089],[71.1622,32.595],[71.1954,32.5784],[71.2417,32.5485],[71.2463,32.536],[71.2308,32.5103],[71.2628,32.4889],[71.2774,32.5121],[71.2979,32.5101],[71.2999,32.5333],[71.3231,32.5313],[71.3509,32.4962],[71.3469,32.4663],[71.3337,32.4279],[71.3443,32.4153],[71.3264,32.4113],[71.3284,32.3888],[71.3423,32.3729],[71.3184,32.363],[71.2833,32.363],[71.2151,32.302],[71.2098,32.2828],[71.1857,32.2663],[71.1647,32.2338],[71.1731,32.1933],[71.1548,32.1668],[71.1382,32.1589],[71.1157,32.1615],[71.1057,32.1238],[71.109,32.1039],[71.0865,32.0356],[71.0653,32.025],[71.0713,32.0025],[71.0677,31.9672],[71.0726,31.9588],[71.062,31.9018],[71.064,31.8806],[71.0355,31.864],[71.0223,31.8157],[70.999,31.7752],[70.9607,31.7474],[70.9301,31.6983],[70.9427,31.6857],[70.9129,31.6877],[70.897,31.6692],[70.8851,31.6361],[70.8951,31.6301],[70.8851,31.6103],[70.9003,31.5865],[70.8804,31.5685],[70.8784,31.5473],[70.9023,31.5234],[70.9003,31.5128],[70.8705,31.5128],[70.8818,31.4863],[70.895,31.4803],[70.8864,31.4445],[70.8957,31.4379],[70.842,31.4214],[70.8347,31.3829],[70.8071,31.3604],[70.7863,31.3478],[70.7837,31.31],[70.7674,31.3056],[70.7472,31.3133],[70.7386,31.3319],[70.6962,31.3319],[70.6777,31.314],[70.6306,31.316],[70.563,31.3385],[70.5445,31.3286],[70.5332,31.3094],[70.51,31.2988],[70.4676,31.2941],[70.451,31.2868],[70.4272,31.2431],[70.4042,31.2094],[70.4042,31.1984],[70.3693,31.1898],[70.2888,31.1624],[70.2957,31.1501],[70.2945,31.0862],[70.2877,31.0611],[70.2687,31.0354],[70.2689,30.9414],[70.2535,30.8767],[70.2731,30.8607],[70.2694,30.8405],[70.2295,30.838],[70.2229,30.8265],[70.2185,30.7839],[70.2027,30.7755],[70.1683,30.7743],[70.1547,30.7333],[70.1109,30.7353],[70.0887,30.6891],[70.0959,30.6266],[70.0881,30.5873],[70.0519,30.5201],[70.0439,30.4979],[70.0047,30.4531],[69.9991,30.4341],[69.9985,30.3839],[69.965,30.322],[69.9611,30.292],[69.9868,30.2926],[69.9752,30.2619],[69.9924,30.2527],[70.015,30.2785],[70.0732,30.2742],[70.0739,30.2552],[70.0518,30.2258],[70.0218,30.2178],[70.0175,30.1835],[70.0052,30.1835],[69.9881,30.1393],[69.9887,30.105],[69.9721,30.0603],[69.9335,30.0254],[69.9127,29.9604],[69.8888,29.9046],[69.8788,29.8953],[69.833,29.8513],[69.8036,29.7857],[69.7895,29.7655],[69.7509,29.7385],[69.738,29.7202],[69.7049,29.7091],[69.6514,29.6846],[69.632,29.6657],[69.6228,29.6393],[69.5928,29.6276],[69.6062,29.6],[69.6007,29.5259],[69.596,29.5065],[69.5738,29.4781],[69.5639,29.4517],[69.567,29.4076],[69.5817,29.4033],[69.6124,29.4229],[69.6295,29.4162],[69.646,29.3976],[69.67,29.3653],[69.6651,29.3524],[69.6369,29.3255],[69.6363,29.312],[69.6633,29.3083],[69.6804,29.2881],[69.6841,29.2581],[69.7,29.2599],[69.746,29.2979],[69.7648,29.2936],[69.7626,29.2789],[69.7387,29.2243],[69.7491,29.1876],[69.6976,29.0883],[69.6528,29.0711],[69.6142,29.0276],[69.5909,28.9951],[69.5774,28.959],[69.5554,28.9547],[69.5407,28.932],[69.4935,28.8995],[69.4812,28.8505],[69.5229,28.8321],[69.5388,28.7929],[69.518,28.7512],[69.4806,28.6979],[69.4162,28.5974],[69.3494,28.5704],[69.3188,28.552],[69.3323,28.5263],[69.3608,28.4512],[69.3911,28.4478],[69.4187,28.4534],[69.4242,28.4687],[69.4763,28.4877],[69.6019,28.4748],[69.6167,28.4699],[69.597,28.4478],[69.6222,28.4331],[69.6553,28.4331],[69.7253,28.427],[69.7508,28.4051],[69.7999,28.3657],[69.8115,28.3614],[69.8121,28.3225],[69.8146,28.275],[69.8305,28.2713],[69.8281,28.2456],[69.8557,28.1947],[69.8373,28.1819],[69.8422,28.1402],[69.882,28.0758],[69.9053,28.0458],[69.9629,27.9876],[69.9942,27.9398],[70.0285,27.9343],[70.0561,27.9042],[70.0745,27.895],[70.1456,27.8779],[70.1772,27.8464],[70.2236,27.8979],[70.2985,27.9354],[70.3731,28.0105],[70.4376,28.0189],[70.5028,28.0358],[70.5421,28.0277],[70.588,28.0094],[70.5938,27.9971],[70.6764,27.9219],[70.6775,27.8671],[70.6827,27.8284],[70.733,27.7574],[70.7376,27.741],[70.7589,27.719],[70.8727,27.7042],[70.9052,27.7071]]]]}},{"type":"Feature","properties":{"province_code":"SD","name":"Sindh"},"geometry":{"type":"MultiPolygon","coordinates":[[[[67.3154,24.3647],[67.3338,24.3733],[67.3304,24.3842],[67.3087,24.3785],[67.3154,24.3647]]],[[[67.3018,24.4501],[67.3059,24.432],[67.3372,24.4416],[67.3595,24.4418],[67.3623,24.4573],[67.3018,24.4501]]],[[[67.3198,24.496],[67.3097,24.4745],[67.3225,24.4723],[67.329,24.4923],[67.3198,24.496]]],[[[67.288,24.5262],[67.2549,24.5086],[67.2482,24.4834],[67.2577,24.4721],[67.255,24.4507],[67.2751,24.4673],[67.3027,24.471],[67.3128,24.4999],[67.288,24.5262]]],[[[67.3143,24.5079],[67.3448,24.4909],[67.3466,24.4983],[67.3191,24.5195],[67.3143,24.5079]]],[[[67.2944,24.5258],[67.3153,24.5267],[67.3505,24.5024],[67.3615,24.5249],[67.3475,24.543],[67.3083,24.544],[67.2944,24.5258]]],[[[67.2465,24.5741],[67.1991,24.577],[67.1966,24.5691],[67.237,24.5232],[67.2453,24.5379],[67.2732,24.5249],[67.3029,24.5478],[67.2858,24.581],[67.2465,24.5741]]],[[[67.3049,24.5875],[67.3086,24.6039],[67.3017,24.5993],[67.3049,24.5875]]],[[[67.3336,24.5962],[67.3345,24.6129],[67.3124,24.635],[67.2902,24.614],[67.2933,24.5865],[67.3046,24.6122],[67.3143,24.6098],[67.3136,24.5866],[67.3336,24.5962]]],[[[67.1819,24.6426],[67.1981,24.6214],[67.2145,24.6386],[67.2257,24.616],[67.2562,24.5972],[67.2728,24.6032],[67.283,24.6271],[67.2565,24.6611],[67.216,24.6635],[67.203,24.6793],[67.1767,24.6706],[67.1819,24.6426]]],[[[67.2834,24.6634],[67.2794,24.6441],[67.2932,24.6347],[67.307,24.644],[67.2986,24.6662],[67.2834,24.6634]]],[[[67.3293,24.6414],[67.343,24.655],[67.3343,24.6766],[67.3126,24.6471],[67.3293,24.6414]]],[[[67.3208,24.6697],[67.2911,24.6875],[67.316,24.6635],[67.3208,24.6697]]],[[[67.1889,24.6911],[67.2137,24.6807],[67.2222,24.6678],[67.2457,24.6703],[67.2199,24.6909],[67.2122,24.7168],[67.1889,24.6911]]],[[[67.2732,24.6777],[67.2923,24.67],[67.2873,24.6917],[67.3301,24.6781],[67.3495,24.694],[67.3915,24.6966],[67.385,24.711],[67.3465,24.7355],[67.3297,24.7274],[67.3031,24.7372],[67.2749,24.7258],[67.2545,24.7063],[67.2257,24.7227],[67.2237,24.6992],[67.2364,24.6971],[67.2481,24.6771],[67.2732,24.6777]]],[[[66.9959,25.0857],[66.9399,25.0296],[66.915,25.0107],[66.8787,25.0059],[66.7683,24.9531],[66.729,24.9194],[66.6912,24.8972],[66.722,24.8918],[66.7118,24.8801],[66.6852,24.8807],[66.6593,24.8556],[66.6658,24.8253],[66.724,24.8381],[66.749,24.8521],[66.7763,24.8422],[66.8012,24.8451],[66.8226,24.8383],[66.8347,24.8593],[66.8682,24.8584],[66.9257,24.8309],[66.9818,24.7849],[66.9931,24.7873],[66.9684,24.8089],[66.9496,24.8358],[66.9292,24.8407],[66.9343,24.8517],[66.961,24.8579],[66.976,24.8534],[66.9654,24.8414],[66.9766,24.8055],[67.0032,24.8111],[67.0339,24.797],[67.0726,24.7491],[67.0883,24.7464],[67.1107,24.7614],[67.1023,24.7781],[67.1318,24.7751],[67.1592,24.79],[67.1808,24.7799],[67.21,24.8115],[67.2434,24.7951],[67.2434,24.784],[67.2723,24.7902],[67.3286,24.7614],[67.3462,24.7753],[67.3737,24.7803],[67.4086,24.7792],[67.4288,24.7724],[67.4439,24.7819],[67.4607,24.7801],[67.4266,24.769],[67.3806,24.7765],[67.3546,24.7683],[67.3496,24.7458],[67.3714,24.7242],[67.3821,24.7254],[67.3932,24.7046],[67.4325,24.6982],[67.4344,24.6857],[67.4203,24.6727],[67.4465,24.6433],[67.4341,24.6406],[67.4143,24.6494],[67.4069,24.6358],[67.3809,24.6349],[67.3799,24.6194],[67.3661,24.6058],[67.3498,24.6072],[67.3381,24.5905],[67.3231,24.5906],[67.3155,24.5753],[67.2996,24.5771],[67.3233,24.5491],[67.3521,24.5551],[67.3834,24.5774],[67.3571,24.5504],[67.3579,24.5419],[67.4016,24.5439],[67.3975,24.5246],[67.3702,24.5304],[67.3553,24.5028],[67.3523,24.4797],[67.3263,24.4801],[67.3258,24.4653],[67.3094,24.4589],[67.3424,24.4591],[67.3743,24.4721],[67.4021,24.5012],[67.3911,24.5142],[67.4131,24.517],[67.4039,24.5065],[67.4213,24.4707],[67.4078,24.484],[67.3874,24.4798],[67.3604,24.4608],[67.3762,24.4594],[67.3958,24.4406],[67.4345,24.4423],[67.4061,24.4328],[67.3735,24.4063],[67.3469,24.3981],[67.3605,24.3877],[67.3756,24.3978],[67.4158,24.4014],[67.4222,24.3826],[67.4055,24.3919],[67.369,24.3857],[67.362,24.3727],[67.3696,24.3477],[67.3967,24.3311],[67.438,24.3224],[67.4566,24.3422],[67.4757,24.3257],[67.4872,24.3263],[67.5124,24.3526],[67.5146,24.3424],[67.4906,24.3218],[67.449,24.3322],[67.4421,24.3161],[67.4201,24.3193],[67.4109,24.3113],[67.3737,24.3358],[67.3509,24.343],[67.3386,24.3323],[67.3594,24.3013],[67.3402,24.3088],[67.3299,24.3339],[67.29,24.2977],[67.2882,24.2661],[67.3128,24.2586],[67.3259,24.2449],[67.3632,24.2858],[67.3814,24.2732],[67.3613,24.2757],[67.3501,24.2542],[67.3739,24.2433],[67.3972,24.242],[67.4192,24.2275],[67.3625,24.2386],[67.342,24.2352],[67.3168,24.2132],[67.3428,24.1559],[67.3571,24.1404],[67.4146,24.1288],[67.4118,24.1233],[67.3722,24.1323],[67.3616,24.1214],[67.3847,24.0693],[67.4073,24.0547],[67.4088,24.084],[67.4431,24.1202],[67.4331,24.0963],[67.4184,24.0883],[67.438,24.0636],[67.3839,24.0201],[67.3912,24.0043],[67.4127,23.993],[67.4187,23.9724],[67.4413,23.951],[67.4864,23.9741],[67.5008,23.9698],[67.4695,23.9393],[67.4812,23.9402],[67.4891,23.9175],[67.5509,23.8846],[67.6005,23.8625],[67.6494,23.8458],[67.6493,23.8248],[67.6874,23.8071],[67.7268,23.8103],[67.7365,23.8199],[67.7051,23.8556],[67.7542,23.8283],[67.7743,23.8093],[67.8117,23.8099],[67.8397,23.8381],[67.8314,23.8852],[67.8416,23.9246],[67.8547,23.9366],[67.8698,23.9298],[67.8635,23.9135],[67.8725,23.8842],[67.9429,23.8173],[67.9596,23.8065],[67.9282,23.7907],[67.9306,23.7777],[67.97,23.7571],[67.9842,23.7634],[68.0081,23.7585],[68.0353,23.7782],[68.0471,23.8263],[68.0277,23.8693],[68.0298,23.9032],[68.042,23.9119],[68.0553,23.903],[68.0471,23.8814],[68.0519,23.859],[68.082,23.8483],[68.1169,23.8517],[68.1421,23.8397],[68.136,23.8695],[68.1599,23.8547],[68.1941,23.847],[68.2011,23.8767],[68.2574,23.9007],[68.2876,23.8901],[68.2892,23.9031],[68.2638,23.9214],[68.2762,23.9396],[68.2946,23.9239],[68.3141,23.9231],[68.3161,23.9396],[68.339,23.9335],[68.3494,23.9475],[68.3294,23.9485],[68.3355,23.9757],[68.356,23.9774],[68.3647,23.9405],[68.3797,23.971],[68.3975,23.9701],[68.7515,23.9701],[68.7624,24.0479],[68.767,24.116],[68.7684,24.2687],[68.7765,24.2941],[68.8262,24.3031],[68.8356,24.2892],[68.8391,24.2565],[68.8532,24.2035],[68.8697,24.2024],[68.8977,24.2668],[68.9167,24.2838],[68.9468,24.2808],[68.964,24.2446],[68.979,24.2282],[69.0017,24.2244],[69.0275,24.2309],[69.082,24.264],[69.1939,24.2339],[69.2184,24.2362],[69.2626,24.2595],[69.2909,24.2688],[69.3269,24.2705],[69.3528,24.2648],[69.4197,24.2681],[69.5032,24.2578],[69.5616,24.2768],[69.5905,24.2808],[69.6243,24.2568],[69.7129,24.1783],[69.7249,24.1712],[69.7809,24.1625],[69.8544,24.1649],[69.9753,24.1623],[70.0203,24.164],[70.0435,24.176],[70.0741,24.2104],[70.1185,24.2878],[70.1326,24.295],[70.1859,24.2982],[70.2862,24.3293],[70.322,24.3431],[70.3741,24.3488],[70.4265,24.3735],[70.481,24.3822],[70.4968,24.393],[70.5547,24.4139],[70.5849,24.4134],[70.5982,24.3953],[70.5843,24.3642],[70.5649,24.3485],[70.5738,24.3145],[70.5843,24.3036],[70.5698,24.2904],[70.5849,24.2837],[70.5707,24.2632],[70.5831,24.2434],[70.6206,24.238],[70.6613,24.2212],[70.7961,24.2205],[70.8584,24.2474],[70.8966,24.256],[70.8984,24.2683],[70.8637,24.2841],[70.8677,24.3023],[70.9208,24.3212],[70.926,24.3297],[70.9913,24.3602],[71.0223,24.3495],[71.041,24.3531],[71.0681,24.3801],[71.125,24.4009],[71.1273,24.4207],[71.1035,24.4368],[71.0706,24.4387],[71.0373,24.4341],[70.9992,24.4472],[71.0072,24.5288],[70.9931,24.5451],[70.9878,24.5956],[70.9978,24.6155],[71.0243,24.6394],[71.0772,24.6629],[71.0991,24.6874],[71.0673,24.7181],[71.0283,24.8092],[70.9893,24.8695],[70.9426,24.9314],[70.919,25.0005],[70.889,25.1476],[70.7522,25.2785],[70.7378,25.3333],[70.6663,25.3973],[70.6732,25.4202],[70.6735,25.4648],[70.6797,25.523],[70.6686,25.5311],[70.6755,25.6756],[70.6614,25.7031],[70.6483,25.7135],[70.6082,25.7159],[70.5293,25.6844],[70.5006,25.6858],[70.4374,25.6816],[70.3881,25.675],[70.3595,25.681],[70.2697,25.7147],[70.2642,25.7208],[70.2524,25.7571],[70.2223,25.7945],[70.1755,25.8289],[70.1009,25.9391],[70.0854,26.0824],[70.1289,26.1387],[70.1429,26.156],[70.1694,26.2175],[70.1768,26.2507],[70.1649,26.294],[70.187,26.3745],[70.1786,26.4234],[70.1861,26.4791],[70.1751,26.5526],[70.1179,26.5883],[70.056,26.602],[69.9341,26.5828],[69.8957,26.5802],[69.8259,26.5898],[69.7913,26.6],[69.7231,26.6547],[69.5111,26.7445],[69.4859,26.8054],[69.4993,26.8653],[69.5146,27.01],[69.5403,27.069],[69.5878,27.1799],[69.652,27.2293],[69.6978,27.2788],[69.7164,27.2934],[69.7795,27.3205],[69.7934,27.3357],[69.8178,27.3553],[69.8931,27.4323],[69.936,27.4978],[69.9889,27.5373],[70.0303,27.5619],[70.1119,27.7525],[70.1264,27.7926],[70.1431,27.8163],[70.1772,27.8464],[70.1456,27.8779],[70.0745,27.895],[70.0561,27.9042],[70.0285,27.9343],[69.9942,27.9398],[69.9629,27.9876],[69.9053,28.0458],[69.882,28.0758],[69.8422,28.1402],[69.8373,28.1819],[69.8557,28.1947],[69.8281,28.2456],[69.8305,28.2713],[69.8146,28.275],[69.8121,28.3225],[69.8115,28.3614],[69.7999,28.3657],[69.7508,28.4051],[69.7253,28.427],[69.6553,28.4331],[69.6222,28.4331],[69.597,28.4478],[69.6167,28.4699],[69.6019,28.4748],[69.4763,28.4877],[69.4242,28.4687],[69.4187,28.4534],[69.3911,28.4478],[69.3608,28.4512],[69.2415,28.4512],[69.1751,28.4418],[69.131,28.4398],[69.0708,28.437],[68.9198,28.4347],[68.8455,28.4323],[68.4638,28.4323],[68.395,28.3896],[68.3547,28.2924],[68.2005,28.2426],[68.0654,28.1382],[68.0156,28.0956],[67.9705,28.0766],[67.9231,28.0363],[67.9136,28.0007],[67.8686,28.0055],[67.833,27.9912],[67.7879,27.9817],[67.7856,27.9509],[67.7382,27.9414],[67.672,27.9374],[67.6599,27.9367],[67.5437,27.9059],[67.5329,27.9124],[67.5014,27.9029],[67.4201,27.8951],[67.3976,27.9123],[67.385,27.8709],[67.368,27.8366],[67.3581,27.8039],[67.355,27.7577],[67.3309,27.7194],[67.2524,27.6591],[67.2236,27.5687],[67.1853,27.5403],[67.1778,27.5198],[67.174,27.4479],[67.1632,27.3675],[67.1372,27.3316],[67.1273,27.3091],[67.1234,27.2759],[67.1403,27.214],[67.1557,27.1269],[67.1585,27.0747],[67.1636,27.0656],[67.138,26.9962],[67.1443,26.9552],[67.1317,26.9236],[67.1343,26.8729],[67.147,26.7662],[67.1257,26.7389],[67.134,26.6719],[67.1275,26.6551],[67.1289,26.634],[67.1417,26.5969],[67.162,26.514],[67.1774,26.4773],[67.2153,26.4284],[67.2552,26.3708],[67.2656,26.3472],[67.3435,26.2031],[67.3593,26.1546],[67.3917,26.1356],[67.417,26.0965],[67.4303,26.0768],[67.4165,26.024],[67.4063,25.966],[67.4051,25.9044],[67.3992,25.8827],[67.4157,25.8421],[67.4165,25.8251],[67.3996,25.7841],[67.3723,25.7624],[67.3743,25.7529],[67.3499,25.7332],[67.336,25.6977],[67.3239,25.6426],[67.2966,25.5852],[67.2638,25.5742],[67.2485,25.5264],[67.222,25.5126],[67.1956,25.4893],[67.1869,25.4696],[67.162,25.4526],[67.164,25.3911],[67.1439,25.3619],[67.1384,25.3362],[67.1407,25.3106],[67.1151,25.2709],[67.0879,25.2405],[67.0429,25.2099],[67.0094,25.1598],[67.0121,25.1125],[67.0062,25.0889],[66.9959,25.0857]],[[69.5513,28.13],[69.5248,28.1378],[69.5208,28.1778],[69.4887,28.2037],[69.4776,28.205],[69.4657,28.2174],[69.476,28.2317],[69.4755,28.2682],[69.515,28.2425],[69.5258,28.2217],[69.5783,28.2009],[69.5605,28.17],[69.5606,28.1441],[69.5513,28.13]],[[69.669,28.2523],[69.6626,28.2381],[69.6422,28.2302],[69.6038,28.2318],[69.5941,28.2564],[69.5926,28.2882],[69.5582,28.3493],[69.532,28.3894],[69.5566,28.3991],[69.5823,28.3555],[69.6373,28.3539],[69.6686,28.3355],[69.6948,28.3005],[69.7127,28.2934],[69.7379,28.3144],[69.7476,28.3139],[69.7419,28.2534],[69.7253,28.2418],[69.6933,28.2639],[69.669,28.2523]]],[[[68.0573,23.7354],[68.0675,23.7084],[68.1194,23.7031],[68.1299,23.7147],[68.1536,23.7057],[68.1623,23.7544],[68.1731,23.7757],[68.194,23.786],[68.1921,23.8331],[68.1674,23.8444],[68.1734,23.8259],[68.1611,23.819],[68.1324,23.8216],[68.1204,23.8312],[68.0894,23.8052],[68.0801,23.7611],[68.0573,23.7354]]],[[[67.4231,24.0676],[67.4105,24.0805],[67.413,24.0593],[67.4231,24.0676]]],[[[67.3557,24.3838],[67.3376,24.3671],[67.3591,24.3603],[67.3557,24.3838]]],[[[67.3671,24.4234],[67.3529,24.4367],[67.3104,24.428],[67.34,24.4177],[67.3086,24.4156],[67.308,24.3906],[67.34,24.3937],[67.3441,24.417],[67.3632,24.4118],[67.3671,24.4234]]],[[[67.3774,24.4338],[67.379,24.4215],[67.3951,24.4296],[67.3774,24.4338]]],[[[67.3398,24.6175],[67.3463,24.6098],[67.3479,24.6213],[67.3398,24.6175]]],[[[67.3556,24.6445],[67.3267,24.63],[67.3475,24.6292],[67.3622,24.6155],[67.3725,24.6338],[67.3556,24.6445]]],[[[67.3671,24.667],[67.3447,24.6498],[67.3649,24.6521],[67.3671,24.667]]],[[[67.4209,24.6984],[67.3856,24.6889],[67.3405,24.6858],[67.3475,24.6718],[67.3666,24.6722],[67.3869,24.6506],[67.4069,24.6477],[67.4163,24.657],[67.437,24.6484],[67.4158,24.6699],[67.4289,24.6908],[67.4209,24.6984]]]]}},{"type":"Feature","properties":{"province_code":"ajk","name":"Azad Jammu & Kashmir"},"geometry":{"type":"Polygon","coordinates":[[[73.7461,33.0561],[73.7829,33.0189],[73.8297,33.012],[73.8778,33.0347],[73.9043,33.0392],[73.9258,33.0341],[73.945,33.02],[73.984,32.9668],[74.001,32.9544],[74.053,32.9307],[74.0748,32.9311],[74.1232,32.9056],[74.2016,32.8735],[74.3255,32.8142],[74.3413,32.8097],[74.3494,32.7826],[74.3718,32.7696],[74.3916,32.7674],[74.4304,32.7833],[74.4548,32.7897],[74.4813,32.7694],[74.506,32.7581],[74.5111,32.7428],[74.5694,32.7604],[74.5795,32.7499],[74.6215,32.7606],[74.6326,32.7523],[74.6394,32.7826],[74.6581,32.7867],[74.6325,32.8091],[74.653,32.8297],[74.6663,32.8252],[74.7062,32.8428],[74.7052,32.8149],[74.6852,32.787],[74.6606,32.7308],[74.6561,32.6967],[74.6663,32.6779],[74.6754,32.6844],[74.6968,32.666],[74.6641,32.6344],[74.6551,32.6148],[74.6389,32.6142],[74.6521,32.5886],[74.6526,32.5656],[74.6753,32.5651],[74.6625,32.546],[74.691,32.534],[74.6854,32.4941],[74.7104,32.4933],[74.7145,32.4778],[74.7688,32.4834],[74.8122,32.4808],[74.8198,32.4998],[74.8412,32.4934],[74.885,32.4906],[74.8783,32.4794],[74.9194,32.4657],[74.9399,32.4714],[74.9451,32.451],[74.9832,32.4471],[74.9837,32.4539],[75.0199,32.4683],[75.0235,32.4964],[75.0943,32.4724],[75.1088,32.4745],[75.109,32.4603],[75.1437,32.4147],[75.1909,32.4264],[75.2008,32.421],[75.1928,32.401],[75.2131,32.4027],[75.247,32.3876],[75.2628,32.372],[75.2899,32.37],[75.2988,32.3464],[75.3219,32.3435],[75.3364,32.3167],[75.3237,32.3021],[75.36,32.3022],[75.3841,32.2946],[75.3807,32.2853],[75.4095,32.2803],[75.4641,32.3081],[75.5243,32.2946],[75.5855,32.3124],[75.5987,32.2611],[75.6207,32.2523],[75.6364,32.2636],[75.6608,32.341],[75.6894,32.3585],[75.7406,32.3597],[75.7679,32.389],[75.7971,32.3989],[75.8224,32.4296],[75.8663,32.4447],[75.9025,32.4746],[75.9179,32.4712],[75.9377,32.5088],[75.9853,32.5781],[76.0068,32.5944],[76.0124,32.6201],[75.9779,32.6516],[76.0003,32.7049],[75.9825,32.7556],[75.9633,32.7882],[75.9431,32.8086],[75.8981,32.8328],[75.8998,32.8594],[75.9146,32.8711],[75.9197,32.8982],[75.9395,32.9033],[75.9808,32.8926],[76.0217,32.8661],[76.0496,32.8635],[76.0782,32.8805],[76.1245,32.9215],[76.2223,32.9885],[76.2869,33.0],[76.3194,33.0197],[76.3376,33.0394],[76.3534,33.0804],[76.3975,33.1264],[76.453,33.1678],[76.4781,33.1783],[76.4875,33.1715],[76.5166,33.1813],[76.5473,33.1812],[76.6308,33.1946],[76.6618,33.1702],[76.7135,33.1641],[76.7735,33.1739],[76.7815,33.1614],[76.7849,33.1823],[76.809,33.208],[76.8103,33.2371],[76.825,33.2508],[76.8338,33.2397],[76.8716,33.2328],[76.8606,33.2147],[76.8614,33.1958],[76.8494,33.1465],[76.8809,33.1118],[76.9165,33.0916],[76.9313,33.0503],[76.9764,33.0002],[77.0127,32.9899],[77.0295,32.9719],[77.0444,32.9746],[77.0769,32.9637],[77.1036,32.9473],[77.1377,32.9579],[77.1578,32.9576],[77.1711,32.9385],[77.1689,32.9135],[77.1848,32.8925],[77.2006,32.8873],[77.2407,32.8892],[77.253,32.8623],[77.2772,32.8382],[77.2974,32.8477],[77.3316,32.8176],[77.3657,32.8069],[77.3789,32.8134],[77.3824,32.8315],[77.4063,32.8682],[77.4627,32.851],[77.5319,32.8856],[77.579,32.9122],[77.6579,32.9624],[77.686,32.9705],[77.7263,32.9556],[77.7457,32.9421],[77.7839,32.8989],[77.7772,32.8662],[77.7837,32.835],[77.8287,32.8184],[77.855,32.7791],[77.8672,32.776],[77.902,32.7429],[77.9012,32.7041],[77.9094,32.672],[77.9464,32.6415],[77.9747,32.6284],[78.0181,32.628],[78.0345,32.6377],[78.1593,32.6834],[78.2141,32.6929],[78.2735,32.7426],[78.3142,32.7594],[78.3276,32.7449],[78.3215,32.7137],[78.3424,32.6681],[78.3356,32.6062],[78.3166,32.5819],[78.2893,32.5698],[78.277,32.5487],[78.2591,32.5431],[78.2491,32.5264],[78.2407,32.4809],[78.2446,32.4625],[78.2633,32.4489],[78.2782,32.4546],[78.2955,32.4846],[78.3301,32.5145],[78.4165,32.5152],[78.3933,32.539],[78.4207,32.5695],[78.4536,32.5814],[78.4835,32.5777],[78.5019,32.5839],[78.5147,32.6117],[78.5463,32.6134],[78.5581,32.6221],[78.5799,32.6209],[78.5855,32.642],[78.6273,32.6338],[78.6637,32.6574],[78.7105,32.6679],[78.7364,32.6941],[78.7494,32.6874],[78.7422,32.6555],[78.7512,32.6409],[78.7818,32.6164],[78.7773,32.5925],[78.7571,32.5666],[78.7713,32.5388],[78.7795,32.4792],[78.7959,32.4753],[78.8124,32.4342],[78.8319,32.4281],[78.8412,32.4112],[78.8687,32.4133],[78.8821,32.398],[78.9053,32.3892],[78.9137,32.3679],[78.9367,32.3596],[78.9676,32.3358],[78.9901,32.3709],[79.0119,32.3807],[79.0577,32.3871],[79.087,32.3724],[79.1049,32.3747],[79.1005,32.3938],[79.1144,32.4187],[79.1249,32.4191],[79.1196,32.4591],[79.1316,32.4808],[79.1492,32.4768],[79.1597,32.4966],[79.1837,32.4976],[79.1882,32.5163],[79.2215,32.5096],[79.223,32.5247],[79.2481,32.5168],[79.2575,32.5378],[79.276,32.5558],[79.2662,32.5624],[79.2892,32.5964],[79.3057,32.6031],[79.2902,32.6282],[79.2951,32.6406],[79.2782,32.6572],[79.268,32.6837],[79.2834,32.6942],[79.2792,32.708],[79.2953,32.722],[79.2744,32.7774],[79.2566,32.7896],[79.2225,32.7876],[79.2248,32.8318],[79.2354,32.8488],[79.2275,32.8575],[79.2339,32.8801],[79.2249,32.8927],[79.2322,32.907],[79.2189,32.9202],[79.2413,32.9436],[79.2193,32.9625],[79.2022,32.9676],[79.2013,32.9806],[79.1796,32.9831],[79.1696,33.0076],[79.1535,33.0085],[79.1412,33.0333],[79.1443,33.1109],[79.1593,33.1362],[79.1518,33.1604],[79.1641,33.1679],[79.1236,33.2022],[79.1031,33.2066],[79.0683,33.229],[79.0806,33.2447],[79.0328,33.2787],[79.0374,33.3064],[79.0266,33.321],[78.9799,33.327],[78.9621,33.339],[78.9363,33.3868],[78.8904,33.4151],[78.8448,33.4201],[78.7986,33.4926],[78.7329,33.5701],[78.7411,33.6015],[78.7542,33.6129],[78.7523,33.6281],[78.7171,33.6237],[78.7629,33.7192],[78.7764,33.7369],[78.7557,33.7813],[78.7642,33.8369],[78.7507,33.8857],[78.7617,33.8897],[78.7619,33.9153],[78.7377,33.9194],[78.7469,33.9923],[78.7193,34.0169],[78.6649,34.0252],[78.6526,34.0416],[78.6659,34.0642],[78.6669,34.0898],[78.6816,34.0788],[78.7059,34.0947],[78.7459,34.0909],[78.7943,34.1346],[78.8392,34.1258],[78.8412,34.1402],[78.8546,34.1361],[78.8601,34.166],[78.8904,34.148],[78.9228,34.1523],[78.9304,34.1659],[78.9441,34.2254],[78.9601,34.2388],[78.9823,34.3119],[79.0532,34.2959],[79.0531,34.3214],[79.033,34.3331],[79.038,34.3571],[79.0007,34.408],[78.967,34.3991],[78.9295,34.3802],[78.8991,34.4027],[78.8781,34.3918],[78.8709,34.4061],[78.8319,34.4185],[78.7966,34.4408],[78.7601,34.4421],[78.7406,34.4595],[78.7611,34.4698],[78.757,34.4862],[78.7191,34.5026],[78.7078,34.5263],[78.6391,34.5416],[78.6186,34.5375],[78.596,34.5232],[78.5827,34.5047],[78.5673,34.5078],[78.5601,34.5262],[78.5632,34.5499],[78.556,34.5663],[78.5386,34.5755],[78.4903,34.5807],[78.4637,34.5663],[78.4483,34.5416],[78.436,34.5416],[78.4329,34.5919],[78.3878,34.6104],[78.3478,34.6073],[78.3016,34.6155],[78.2729,34.6309],[78.2668,34.6566],[78.2791,34.6772],[78.2666,34.7084],[78.2298,34.7151],[78.2072,34.7264],[78.1878,34.7996],[78.2305,34.815],[78.2369,34.8825],[78.2154,34.8897],[78.2021,34.9164],[78.1816,34.9308],[78.204,34.956],[78.1975,34.9729],[78.1774,34.9872],[78.1506,34.9929],[78.1285,35.0491],[78.1428,35.0749],[78.1303,35.1012],[78.1134,35.106],[78.0866,35.1656],[78.0457,35.1868],[78.0304,35.2074],[78.0116,35.2194],[78.004,35.2469],[78.0235,35.3587],[78.0502,35.398],[78.1066,35.439],[78.1117,35.4688],[78.1042,35.4826],[78.0761,35.4945],[78.0636,35.4855],[78.0464,35.4929],[78.0297,35.4709],[78.0058,35.4906],[77.9804,35.4893],[77.964,35.4801],[77.9291,35.4914],[77.9127,35.4688],[77.8989,35.4714],[77.8656,35.5016],[77.8563,35.4903],[77.8184,35.5232],[77.8044,35.5],[77.7548,35.5006],[77.7322,35.4821],[77.7302,35.4606],[77.7067,35.4613],[77.6902,35.4513],[77.6818,35.4228],[77.6534,35.4075],[77.612,35.3714],[77.6074,35.3407],[77.5306,35.2992],[77.4976,35.2739],[77.4469,35.2511],[77.3748,35.1925],[77.232,35.1104],[77.1721,35.0597],[77.1214,35.0536],[77.0538,35.0374],[77.0324,35.0259],[76.9679,35.0029],[76.9502,34.9822],[76.8727,34.953],[76.8366,34.9353],[76.8182,34.9177],[76.7445,34.8785],[76.7007,34.8371],[76.6393,34.8102],[76.5664,34.7918],[76.4965,34.7987],[76.455,34.7711],[76.4474,34.7503],[76.4197,34.7281],[76.3529,34.6597],[76.3053,34.6382],[76.2815,34.6229],[76.1856,34.6014],[76.0796,34.6367],[76.0182,34.6713],[76.0059,34.6467],[75.9868,34.6367],[75.9261,34.5922],[75.9038,34.5446],[75.8885,34.5331],[75.8447,34.53],[75.8271,34.5139],[75.6536,34.5108],[75.6221,34.5146],[75.5591,34.53],[75.5338,34.5423],[75.4839,34.5384],[75.4578,34.5453],[75.4302,34.5446],[75.3588,34.5653],[75.3265,34.5691],[75.2966,34.5945],[75.2644,34.6068],[75.2644,34.6283],[75.2452,34.6421],[75.2137,34.6375],[75.2006,34.672],[75.1408,34.6927],[75.1077,34.6605],[75.077,34.6536],[75.0509,34.619],[75.0141,34.619],[74.9795,34.6352],[74.9527,34.6344],[74.9342,34.6521],[74.8951,34.6567],[74.8644,34.7027],[74.8222,34.748],[74.776,34.7622],[74.7629,34.7877],[74.7528,34.8228],[74.7279,34.8383],[74.7255,34.8555],[74.7029,34.8537],[74.6988,34.8691],[74.6839,34.8727],[74.6655,34.9],[74.6459,34.8965],[74.6186,34.9101],[74.599,34.9107],[74.5704,34.8965],[74.5728,34.9404],[74.5663,34.9482],[74.5752,34.9904],[74.5889,34.9987],[74.5734,35.0183],[74.5615,35.0094],[74.5348,35.0355],[74.5384,35.0682],[74.5164,35.0842],[74.5098,35.1015],[74.4873,35.1116],[74.4635,35.108],[74.4558,35.1318],[74.4439,35.1359],[74.4195,35.1068],[74.3631,35.0575],[74.3161,35.0664],[74.293,35.0622],[74.2823,35.0462],[74.2573,35.0397],[74.2431,35.0456],[74.2235,35.0813],[74.1902,35.0848],[74.1694,35.0789],[74.1286,35.1052],[74.0948,35.0911],[74.0767,35.0475],[74.1112,35.0176],[74.0971,35.0006],[74.0694,34.9967],[74.0603,34.982],[74.0716,34.9379],[74.0389,34.9141],[74.0451,34.8904],[74.0219,34.874],[73.9778,34.8661],[73.9682,34.8356],[73.9343,34.8316],[73.9275,34.8113],[73.8981,34.8197],[73.8653,34.809],[73.8382,34.8141],[73.8308,34.7915],[73.7777,34.7949],[73.728,34.7643],[73.7234,34.7468],[73.7037,34.7191],[73.6856,34.7055],[73.6867,34.692],[73.6635,34.6626],[73.6997,34.6479],[73.659,34.5993],[73.6658,34.5801],[73.6567,34.5625],[73.6364,34.5648],[73.6279,34.5772],[73.6059,34.5851],[73.5567,34.588],[73.5375,34.5716],[73.4957,34.5772],[73.4533,34.5693],[73.4482,34.536],[73.4357,34.5269],[73.4442,34.5054],[73.429,34.4693],[73.4329,34.4354],[73.421,34.3986],[73.3984,34.3783],[73.4011,34.3708],[73.4403,34.3263],[73.4516,34.3003],[73.4696,34.2799],[73.4804,34.2912],[73.4883,34.2793],[73.4736,34.2562],[73.499,34.2076],[73.4951,34.1872],[73.4951,34.1352],[73.503,34.0691],[73.5149,34.0369],[73.511,34.0187],[73.5347,33.9882],[73.5437,33.9543],[73.5691,33.9204],[73.5884,33.9074],[73.5946,33.8916],[73.5923,33.8627],[73.5669,33.7977],[73.5985,33.7395],[73.6008,33.6988],[73.5957,33.6807],[73.577,33.6666],[73.572,33.6304],[73.6019,33.6061],[73.6285,33.5677],[73.6257,33.5451],[73.6336,33.5264],[73.6121,33.5083],[73.6115,33.4919],[73.6302,33.4563],[73.6019,33.4349],[73.5827,33.4026],[73.576,33.3774],[73.5888,33.3418],[73.6083,33.3349],[73.6037,33.3191],[73.6183,33.289],[73.6247,33.2552],[73.6274,33.2415],[73.6703,33.211],[73.6703,33.1522],[73.6251,33.1319],[73.624,33.1144],[73.6341,33.0934],[73.6534,33.0804],[73.7297,33.064],[73.7461,33.0561]]]}},{"type":"Feature","properties":{"province_code":"gb","name":"Gilgit-Baltistan"},"geometry":{"type":"Polygon","coordinates":[[[74.1319,35.1193],[74.1286,35.1052],[74.1694,35.0789],[74.1902,35.0848],[74.2235,35.0813],[74.2431,35.0456],[74.2573,35.0397],[74.2823,35.0462],[74.293,35.0622],[74.3161,35.0664],[74.3631,35.0575],[74.4195,35.1068],[74.4439,35.1359],[74.4558,35.1318],[74.4635,35.108],[74.4873,35.1116],[74.5098,35.1015],[74.5164,35.0842],[74.5384,35.0682],[74.5348,35.0355],[74.5615,35.0094],[74.5734,35.0183],[74.5889,34.9987],[74.5752,34.9904],[74.5663,34.9482],[74.5728,34.9404],[74.5704,34.8965],[74.599,34.9107],[74.6186,34.9101],[74.6459,34.8965],[74.6655,34.9],[74.6839,34.8727],[74.6988,34.8691],[74.7029,34.8537],[74.7255,34.8555],[74.7279,34.8383],[74.7528,34.8228],[74.7629,34.7877],[74.776,34.7622],[74.8222,34.748],[74.8644,34.7027],[74.8951,34.6567],[74.9342,34.6521],[74.9527,34.6344],[74.9795,34.6352],[75.0141,34.619],[75.0509,34.619],[75.077,34.6536],[75.1077,34.6605],[75.1408,34.6927],[75.2006,34.672],[75.2137,34.6375],[75.2452,34.6421],[75.2644,34.6283],[75.2644,34.6068],[75.2966,34.5945],[75.3265,34.5691],[75.3588,34.5653],[75.4302,34.5446],[75.4578,34.5453],[75.4839,34.5384],[75.5338,34.5423],[75.5591,34.53],[75.6221,34.5146],[75.6536,34.5108],[75.8271,34.5139],[75.8447,34.53],[75.8885,34.5331],[75.9038,34.5446],[75.9261,34.5922],[75.9868,34.6367],[76.0059,34.6467],[76.0182,34.6713],[76.0796,34.6367],[76.1856,34.6014],[76.2815,34.6229],[76.3053,34.6382],[76.3529,34.6597],[76.4197,34.7281],[76.4474,34.7503],[76.455,34.7711],[76.4965,34.7987],[76.5664,34.7918],[76.6393,34.8102],[76.7007,34.8371],[76.7445,34.8785],[76.8182,34.9177],[76.8366,34.9353],[76.8727,34.953],[76.9502,34.9822],[76.9679,35.0029],[77.0324,35.0259],[77.0538,35.0374],[77.1214,35.0536],[77.1721,35.0597],[77.232,35.1104],[77.3748,35.1925],[77.4469,35.2511],[77.4976,35.2739],[77.5306,35.2992],[77.6074,35.3407],[77.612,35.3714],[77.6534,35.4075],[77.6818,35.4228],[77.6902,35.4513],[77.6666,35.4688],[77.6614,35.4831],[77.6389,35.4749],[77.6378,35.4564],[77.6071,35.468],[77.5835,35.4657],[77.5863,35.478],[77.5055,35.4862],[77.4788,35.4821],[77.4511,35.4626],[77.4039,35.4739],[77.3875,35.4677],[77.3762,35.4965],[77.3458,35.4976],[77.3393,35.5211],[77.3239,35.5386],[77.3023,35.5437],[77.2203,35.5232],[77.1864,35.5221],[77.1284,35.5569],[77.1064,35.5622],[77.053,35.6032],[77.0228,35.602],[77.0109,35.6156],[76.9661,35.5961],[76.936,35.6043],[76.8734,35.6443],[76.856,35.6669],[76.7667,35.6556],[76.7267,35.71],[76.7,35.7254],[76.699,35.7449],[76.661,35.7562],[76.6456,35.7685],[76.6158,35.7665],[76.5953,35.7737],[76.5683,35.8127],[76.5676,35.824],[76.5891,35.8538],[76.5787,35.8696],[76.5984,35.901],[76.5717,35.9298],[76.5481,35.9256],[76.5432,35.9082],[76.5099,35.8867],[76.4804,35.8948],[76.4639,35.8866],[76.4448,35.8616],[76.427,35.8548],[76.3695,35.864],[76.3593,35.8579],[76.3654,35.8281],[76.3459,35.8291],[76.2915,35.8445],[76.234,35.8404],[76.2176,35.826],[76.1519,35.8291],[76.1468,35.8435],[76.1568,35.8632],[76.1653,35.9082],[76.1571,35.9338],[76.1191,35.9759],[76.0996,36.0242],[76.0421,36.0304],[76.0252,36.019],[75.9805,36.0345],[75.9487,36.0735],[75.9569,36.0858],[75.9425,36.1012],[75.9477,36.1228],[75.9353,36.1413],[75.9733,36.1536],[75.9702,36.1659],[76.0168,36.1725],[76.0094,36.2366],[76.0263,36.2382],[76.0597,36.2282],[76.0602,36.2515],[76.0332,36.27],[76.0237,36.2981],[75.993,36.3251],[75.9877,36.3463],[76.0078,36.3865],[76.0322,36.3987],[76.0385,36.4151],[76.014,36.4549],[75.9983,36.5015],[75.969,36.5215],[75.9511,36.5571],[75.9358,36.5756],[75.9411,36.6064],[75.8977,36.6392],[75.8468,36.6863],[75.7356,36.7531],[75.7037,36.7555],[75.6769,36.7711],[75.6334,36.7801],[75.5858,36.7721],[75.5709,36.7796],[75.5397,36.7801],[75.5344,36.734],[75.515,36.7344],[75.5037,36.7488],[75.4783,36.7298],[75.4601,36.7298],[75.4264,36.7843],[75.4258,36.8283],[75.4333,36.8765],[75.4232,36.8956],[75.3978,36.9093],[75.3941,36.9284],[75.419,36.9448],[75.4062,36.9655],[75.3782,36.9649],[75.3125,36.9803],[75.2818,36.983],[75.241,36.9718],[75.1687,36.9993],[75.1706,37.0227],[75.1457,37.0343],[75.1309,37.0206],[75.0636,37.0131],[75.0334,37.0259],[74.9969,37.0006],[74.9789,37.0036],[74.9371,36.9925],[74.9233,36.9835],[74.9392,36.948],[74.9021,36.9406],[74.8703,36.9983],[74.8428,37.0237],[74.8465,37.0534],[74.8407,37.0656],[74.8121,37.0651],[74.7935,37.0571],[74.7914,37.0375],[74.7348,37.0375],[74.7205,37.0518],[74.7042,37.0976],[74.6312,37.0754],[74.6232,37.0593],[74.5734,37.0389],[74.5761,37.0042],[74.5628,36.9713],[74.537,36.9766],[74.5316,36.9989],[74.5005,37.0086],[74.424,37.0069],[74.4063,36.9891],[74.3582,36.9748],[74.3244,36.9455],[74.2773,36.9153],[74.2426,36.9055],[74.2177,36.9144],[74.151,36.9179],[74.1359,36.8859],[74.1297,36.8574],[74.0852,36.8521],[74.0407,36.8343],[74.0221,36.8414],[73.9749,36.8405],[73.9456,36.869],[73.9109,36.8886],[73.8904,36.8859],[73.8424,36.9072],[73.8006,36.9001],[73.7553,36.9126],[73.7286,36.9099],[73.7001,36.9197],[73.6699,36.9224],[73.6507,36.9155],[73.684,36.8655],[73.7208,36.8423],[73.7481,36.8423],[73.785,36.8346],[73.7933,36.812],[73.8266,36.8085],[73.8569,36.78],[73.8681,36.755],[73.861,36.7247],[73.8343,36.7098],[73.7755,36.7283],[73.7345,36.7188],[73.6875,36.7229],[73.6566,36.7069],[73.6037,36.7098],[73.5788,36.7188],[73.5687,36.736],[73.5069,36.73],[73.4493,36.7413],[73.4089,36.7586],[73.3744,36.758],[73.2681,36.7211],[73.214,36.7176],[73.1522,36.73],[73.1249,36.711],[73.0619,36.6974],[73.0494,36.6849],[73.0577,36.6463],[73.075,36.6094],[73.0547,36.5869],[73.0411,36.5476],[73.0102,36.5245],[72.9704,36.509],[72.9674,36.4769],[72.924,36.474],[72.8884,36.4633],[72.8715,36.4524],[72.8632,36.4334],[72.8572,36.3883],[72.8483,36.3764],[72.8183,36.3646],[72.7595,36.3272],[72.7218,36.3135],[72.6864,36.2755],[72.6525,36.2636],[72.5937,36.2696],[72.5491,36.2327],[72.542,36.2084],[72.5402,36.1365],[72.5236,36.1115],[72.5212,36.0789],[72.5301,36.0604],[72.5658,36.0289],[72.5681,36.0123],[72.5497,35.9725],[72.5182,35.9244],[72.5107,35.9022],[72.5282,35.8977],[72.552,35.8803],[72.5685,35.8518],[72.6274,35.8394],[72.6834,35.8204],[72.7857,35.8481],[72.7897,35.8524],[72.8095,35.8625],[72.8195,35.8881],[72.8367,35.8733],[72.8908,35.8774],[72.8919,35.8495],[72.9038,35.8418],[72.9604,35.8489],[72.9989,35.8626],[73.0263,35.8423],[73.0559,35.862],[73.0732,35.8608],[73.0922,35.8756],[73.1291,35.8459],[73.1498,35.8436],[73.1783,35.8602],[73.2003,35.8269],[73.2003,35.7871],[73.1878,35.7853],[73.1581,35.7616],[73.1201,35.7651],[73.11,35.7491],[73.126,35.7212],[73.1486,35.7129],[73.1831,35.6897],[73.192,35.6772],[73.236,35.6677],[73.2401,35.6576],[73.2752,35.6695],[73.2966,35.6623],[73.331,35.6629],[73.3381,35.6433],[73.3643,35.6005],[73.3952,35.5869],[73.4011,35.5364],[73.4178,35.5251],[73.4999,35.5429],[73.6169,35.5411],[73.6649,35.531],[73.7351,35.5316],[73.7511,35.5239],[73.7856,35.5245],[73.7856,35.4633],[73.7945,35.449],[73.7547,35.4431],[73.7529,35.4324],[73.7273,35.4193],[73.6982,35.3712],[73.6929,35.3492],[73.6994,35.3142],[73.7101,35.3029],[73.7119,35.2797],[73.7303,35.2737],[73.7499,35.231],[73.7655,35.2209],[73.8093,35.2429],[73.8325,35.2274],[73.8474,35.2262],[73.8711,35.2048],[73.9008,35.212],[73.9258,35.2102],[73.9577,35.1652],[74.003,35.1846],[74.0078,35.171],[74.0357,35.1496],[74.0803,35.1561],[74.0969,35.146],[74.1123,35.1532],[74.1159,35.1234],[74.1319,35.1193]]]}}]}